"Longitude (x)","Latitude (y)","Station Name","Climate ID","Date/Time (LST)","Year","Month","Day","Time (LST)","Flag","Temp (°C)","Temp Flag","Dew Point Temp (°C)","Dew Point Temp Flag","Rel Hum (%)","Rel Hum Flag","Precip. Amount (mm)","Precip. Amount Flag","Wind Dir (10s deg)","Wind Dir Flag","Wind Spd (km/h)","Wind Spd Flag","Visibility (km)","Visibility Flag","Stn Press (kPa)","Stn Press Flag","Hmdx","Hmdx Flag","Wind Chill","Wind Chill Flag","Weather"
"-81.38","48.57","TIMMINS A","6078286","2023-08-01 00:00","2023","08","01","00:00","","9.9","","8.9","","94","","","","","","0","","24.1","","98.62","","","","","","NA"
"-81.38","48.57","TIMMINS A","6078286","2023-08-01 01:00","2023","08","01","01:00","","8.8","","8.0","","95","","","","3","","4","","24.1","","98.60","","","","","","Mostly Cloudy"
"-81.38","48.57","TIMMINS A","6078286","2023-08-01 02:00","2023","08","01","02:00","","8.0","","7.4","","96","","","","","","0","","24.1","","98.61","","","","","","NA"
"-81.38","48.57","TIMMINS A","6078286","2023-08-01 03:00","2023","08","01","03:00","","8.3","","7.7","","96","","","","4","","7","","24.1","","98.63","","","","","","NA"
"-81.38","48.57","TIMMINS A","6078286","2023-08-01 04:00","2023","08","01","04:00","","6.8","","6.3","","97","","","","","","0","","24.1","","98.66","","","","","","Mostly Cloudy"
"-81.38","48.57","TIMMINS A","6078286","2023-08-01 05:00","2023","08","01","05:00","","7.2","","6.7","","97","","","","7","","4","","24.1","","98.70","","","","","","NA"
"-81.38","48.57","TIMMINS A","6078286","2023-08-01 06:00","2023","08","01","06:00","","10.4","","9.1","","91","","","","5","","6","","24.1","","98.73","","","","","","NA"
"-81.38","48.57","TIMMINS A","6078286","2023-08-01 07:00","2023","08","01","07:00","","13.3","","10.7","","84","","","","9","","5","","24.1","","98.80","","","","","","Mostly Cloudy"
"-81.38","48.57","TIMMINS A","6078286","2023-08-01 08:00","2023","08","01","08:00","","15.9","","11.5","","75","","","","10","","5","","24.1","","98.80","","","","","","NA"
"-81.38","48.57","TIMMINS A","6078286","2023-08-01 09:00","2023","08","01","09:00","","17.1","","8.9","","58","","","","9","","5","","24.1","","98.83","","","","","","NA"
"-81.38","48.57","TIMMINS A","6078286","2023-08-01 10:00","2023","08","01","10:00","","17.9","","8.7","","55","","","","5","","8","","24.1","","98.80","","","","","","Mainly Clear"
"-81.38","48.57","TIMMINS A","6078286","2023-08-01 11:00","2023","08","01","11:00","","19.7","","10.1","","53","","","","13","","7","","24.1","","98.77","","","","","","NA"
"-81.38","48.57","TIMMINS A","6078286","2023-08-01 12:00","2023","08","01","12:00","","20.6","","10.0","","50","","","","12","","6","","24.1","","98.75","","","","","","NA"
"-81.38","48.57","TIMMINS A","6078286","2023-08-01 13:00","2023","08","01","13:00","","21.4","","8.9","","44","","","","12","","9","","24.1","","98.69","","","","","","Mostly Cloudy"
"-81.38","48.57","TIMMINS A","6078286","2023-08-01 14:00","2023","08","01","14:00","","21.9","","9.1","","44","","","","7","","8","","24.1","","98.66","","","","","","NA"
"-81.38","48.57","TIMMINS A","6078286","2023-08-01 15:00","2023","08","01","15:00","","22.1","","6.3","","35","","","","10","","6","","24.1","","98.63","","","","","","NA"
"-81.38","48.57","TIMMINS A","6078286","2023-08-01 16:00","2023","08","01","16:00","","21.7","","7.6","","40","","","","14","","7","","24.1","","98.59","","","","","","Mostly Cloudy"
"-81.38","48.57","TIMMINS A","6078286","2023-08-01 17:00","2023","08","01","17:00","","22.2","","7.5","","38","","","","18","","11","","24.1","","98.56","","","","","","NA"
"-81.38","48.57","TIMMINS A","6078286","2023-08-01 18:00","2023","08","01","18:00","","21.4","","8.7","","44","","","","18","","6","","24.1","","98.52","","","","","","NA"
"-81.38","48.57","TIMMINS A","6078286","2023-08-01 19:00","2023","08","01","19:00","","18.7","","10.9","","60","","","","15","","4","","24.1","","98.52","","","","","","Mostly Cloudy"
"-81.38","48.57","TIMMINS A","6078286","2023-08-01 20:00","2023","08","01","20:00","","14.5","","12.0","","85","","","","16","","3","","24.1","","98.52","","","","","","NA"
"-81.38","48.57","TIMMINS A","6078286","2023-08-01 21:00","2023","08","01","21:00","","13.4","","10.3","","82","","","","16","","3","","24.1","","98.53","","","","","","NA"
"-81.38","48.57","TIMMINS A","6078286","2023-08-01 22:00","2023","08","01","22:00","","13.4","","9.2","","75","","","","17","","7","","24.1","","98.50","","","","","","Mostly Cloudy"
"-81.38","48.57","TIMMINS A","6078286","2023-08-01 23:00","2023","08","01","23:00","","12.3","","8.4","","77","","","","15","","7","","24.1","","98.50","","","","","","NA"
"-81.38","48.57","TIMMINS A","6078286","2023-08-02 00:00","2023","08","02","00:00","","10.0","","8.1","","88","","","","17","","4","","24.1","","98.49","","","","","","NA"
"-81.38","48.57","TIMMINS A","6078286","2023-08-02 01:00","2023","08","02","01:00","","10.8","","8.3","","84","","","","17","","6","","24.1","","98.46","","","","","","Mostly Cloudy"
"-81.38","48.57","TIMMINS A","6078286","2023-08-02 02:00","2023","08","02","02:00","","12.6","","8.9","","78","","","","17","","8","","24.1","","98.43","","","","","","NA"
"-81.38","48.57","TIMMINS A","6078286","2023-08-02 03:00","2023","08","02","03:00","","10.9","","8.5","","85","","","","18","","8","","24.1","","98.38","","","","","","NA"
"-81.38","48.57","TIMMINS A","6078286","2023-08-02 04:00","2023","08","02","04:00","","10.8","","8.8","","87","","","","18","","8","","24.1","","98.37","","","","","","Mostly Cloudy"
"-81.38","48.57","TIMMINS A","6078286","2023-08-02 05:00","2023","08","02","05:00","","10.9","","9.4","","90","","","","19","","9","","24.1","","98.35","","","","","","NA"
"-81.38","48.57","TIMMINS A","6078286","2023-08-02 06:00","2023","08","02","06:00","","11.3","","10.0","","91","","","","19","","8","","24.1","","98.32","","","","","","NA"
"-81.38","48.57","TIMMINS A","6078286","2023-08-02 07:00","2023","08","02","07:00","","13.2","","11.5","","89","","","","19","","9","","24.1","","98.28","","","","","","Cloudy"
"-81.38","48.57","TIMMINS A","6078286","2023-08-02 08:00","2023","08","02","08:00","","15.0","","12.7","","86","","","","18","","10","","24.1","","98.22","","","","","","NA"
"-81.38","48.57","TIMMINS A","6078286","2023-08-02 09:00","2023","08","02","09:00","","16.2","","13.6","","84","","","","19","","11","","19.3","","98.19","","","","","","NA"
"-81.38","48.57","TIMMINS A","6078286","2023-08-02 10:00","2023","08","02","10:00","","16.6","","14.2","","86","","","","16","","10","","24.1","","98.11","","","","","","Cloudy"
"-81.38","48.57","TIMMINS A","6078286","2023-08-02 11:00","2023","08","02","11:00","","17.5","","15.0","","85","","","","16","","9","","11.3","","98.07","","","","","","Thunderstorms"
"-81.38","48.57","TIMMINS A","6078286","2023-08-02 12:00","2023","08","02","12:00","","16.6","","15.9","","96","","","","14","","5","","11.3","","98.05","","","","","","Thunderstorms,Rain Showers"
"-81.38","48.57","TIMMINS A","6078286","2023-08-02 13:00","2023","08","02","13:00","","16.5","","16.1","","98","","","","8","","10","","4.8","","97.97","","","","","","Rain Showers,Fog"
"-81.38","48.57","TIMMINS A","6078286","2023-08-02 14:00","2023","08","02","14:00","","17.2","","16.7","","97","","","","13","","16","","4.8","","97.80","","","","","","Rain Showers,Fog"
"-81.38","48.57","TIMMINS A","6078286","2023-08-02 15:00","2023","08","02","15:00","","17.8","","16.8","","94","","","","16","","17","","4.0","","97.67","","","","","","Rain Showers,Fog"
"-81.38","48.57","TIMMINS A","6078286","2023-08-02 16:00","2023","08","02","16:00","","19.2","","17.7","","91","","","","16","","11","","6.4","","97.56","","","","","","Rain Showers,Fog"
"-81.38","48.57","TIMMINS A","6078286","2023-08-02 17:00","2023","08","02","17:00","","18.2","","17.0","","92","","","","26","","11","","9.7","","97.61","","","","","","Thunderstorms,Rain Showers,Fog"
"-81.38","48.57","TIMMINS A","6078286","2023-08-02 18:00","2023","08","02","18:00","","18.1","","16.5","","90","","","","21","","4","","24.1","","97.51","","","","","","NA"
"-81.38","48.57","TIMMINS A","6078286","2023-08-02 19:00","2023","08","02","19:00","","17.4","","16.9","","97","","","","13","","3","","24.1","","97.48","","","","","","Cloudy"
"-81.38","48.57","TIMMINS A","6078286","2023-08-02 20:00","2023","08","02","20:00","","16.9","","16.6","","98","","","","","","0","","24.1","","97.47","","","","","","NA"
"-81.38","48.57","TIMMINS A","6078286","2023-08-02 21:00","2023","08","02","21:00","","15.9","","15.7","","98","","","","22","","7","","24.1","","97.46","","","","","","NA"
"-81.38","48.57","TIMMINS A","6078286","2023-08-02 22:00","2023","08","02","22:00","","16.5","","16.2","","98","","","","27","","8","","24.1","","97.48","","","","","","Mainly Clear"
"-81.38","48.57","TIMMINS A","6078286","2023-08-02 23:00","2023","08","02","23:00","","15.8","","15.5","","98","","","","22","","5","","24.1","","97.47","","","","","","NA"
"-81.38","48.57","TIMMINS A","6078286","2023-08-03 00:00","2023","08","03","00:00","","15.8","","15.5","","98","","","","25","","8","","24.1","","97.43","","","","","","NA"
"-81.38","48.57","TIMMINS A","6078286","2023-08-03 01:00","2023","08","03","01:00","","16.3","","15.6","","96","","","","26","","11","","24.1","","97.40","","","","","","Mostly Cloudy"
"-81.38","48.57","TIMMINS A","6078286","2023-08-03 02:00","2023","08","03","02:00","","15.9","","15.3","","96","","","","26","","6","","24.1","","97.38","","","","","","NA"
"-81.38","48.57","TIMMINS A","6078286","2023-08-03 03:00","2023","08","03","03:00","","15.3","","14.8","","97","","","","26","","9","","24.1","","97.39","","","","","","NA"
"-81.38","48.57","TIMMINS A","6078286","2023-08-03 04:00","2023","08","03","04:00","","15.0","","14.4","","96","","","","26","","8","","24.1","","97.40","","","","","","Mostly Cloudy"
"-81.38","48.57","TIMMINS A","6078286","2023-08-03 05:00","2023","08","03","05:00","","15.1","","13.9","","93","","","","26","","11","","24.1","","97.41","","","","","","NA"
"-81.38","48.57","TIMMINS A","6078286","2023-08-03 06:00","2023","08","03","06:00","","14.9","","13.8","","93","","","","27","","9","","24.1","","97.42","","","","","","NA"
"-81.38","48.57","TIMMINS A","6078286","2023-08-03 07:00","2023","08","03","07:00","","16.2","","14.6","","90","","","","28","","9","","24.1","","97.40","","","","","","Mostly Cloudy"
"-81.38","48.57","TIMMINS A","6078286","2023-08-03 08:00","2023","08","03","08:00","","17.6","","15.0","","84","","","","28","","10","","24.1","","97.42","","","","","","NA"
"-81.38","48.57","TIMMINS A","6078286","2023-08-03 09:00","2023","08","03","09:00","","18.9","","15.7","","82","","","","28","","13","","24.1","","97.40","","","","","","NA"
"-81.38","48.57","TIMMINS A","6078286","2023-08-03 10:00","2023","08","03","10:00","","16.8","","15.4","","92","","","","27","","9","","8.1","","97.43","","","","","","Thunderstorms,Rain Showers,Fog"
"-81.38","48.57","TIMMINS A","6078286","2023-08-03 11:00","2023","08","03","11:00","","16.8","","16.2","","96","","","","26","","8","","16.1","","97.44","","","","","","Rain Showers"
"-81.38","48.57","TIMMINS A","6078286","2023-08-03 12:00","2023","08","03","12:00","","19.5","","16.0","","80","","","","28","","14","","24.1","","97.41","","","","","","NA"
"-81.38","48.57","TIMMINS A","6078286","2023-08-03 13:00","2023","08","03","13:00","","21.4","","15.5","","69","","","","27","","13","","24.1","","97.37","","26","","","","Mostly Cloudy"
"-81.38","48.57","TIMMINS A","6078286","2023-08-03 14:00","2023","08","03","14:00","","21.4","","16.4","","72","","","","35","","9","","19.3","","97.37","","26","","","","Rain Showers"
"-81.38","48.57","TIMMINS A","6078286","2023-08-03 15:00","2023","08","03","15:00","","17.4","","16.2","","93","","","","31","","6","","16.1","","97.41","","","","","","Rain Showers"
"-81.38","48.57","TIMMINS A","6078286","2023-08-03 16:00","2023","08","03","16:00","","19.1","","16.6","","85","","","","31","","10","","24.1","","97.40","","","","","","Mostly Cloudy"
"-81.38","48.57","TIMMINS A","6078286","2023-08-03 17:00","2023","08","03","17:00","","19.8","","16.9","","83","","","","29","","9","","24.1","","97.41","","","","","","NA"
"-81.38","48.57","TIMMINS A","6078286","2023-08-03 18:00","2023","08","03","18:00","","19.6","","16.5","","82","","","","31","","7","","24.1","","97.44","","","","","","Thunderstorms"
"-81.38","48.57","TIMMINS A","6078286","2023-08-03 19:00","2023","08","03","19:00","","19.6","","17.3","","86","","","","30","","9","","24.1","","97.48","","","","","","Mostly Cloudy"
"-81.38","48.57","TIMMINS A","6078286","2023-08-03 20:00","2023","08","03","20:00","","18.4","","16.9","","91","","","","33","","11","","24.1","","97.52","","","","","","Rain Showers"
"-81.38","48.57","TIMMINS A","6078286","2023-08-03 21:00","2023","08","03","21:00","","16.7","","16.0","","96","","","","32","","10","","24.1","","97.60","","","","","","Rain Showers"
"-81.38","48.57","TIMMINS A","6078286","2023-08-03 22:00","2023","08","03","22:00","","16.4","","15.5","","95","","","","33","","10","","24.1","","97.62","","","","","","Mostly Cloudy"
"-81.38","48.57","TIMMINS A","6078286","2023-08-03 23:00","2023","08","03","23:00","","15.9","","15.5","","97","","","","34","","10","","24.1","","97.66","","","","","","NA"
"-81.38","48.57","TIMMINS A","6078286","2023-08-04 00:00","2023","08","04","00:00","","15.9","","15.5","","98","","","","34","","11","","24.1","","97.72","","","","","","NA"
"-81.38","48.57","TIMMINS A","6078286","2023-08-04 01:00","2023","08","04","01:00","","15.8","","15.4","","97","","","","34","","13","","24.1","","97.75","","","","","","Mostly Cloudy"
"-81.38","48.57","TIMMINS A","6078286","2023-08-04 02:00","2023","08","04","02:00","","15.5","","14.7","","95","","","","35","","9","","24.1","","97.80","","","","","","NA"
"-81.38","48.57","TIMMINS A","6078286","2023-08-04 03:00","2023","08","04","03:00","","15.2","","14.4","","95","","","","35","","13","","9.7","","97.85","","","","","","Fog"
"-81.38","48.57","TIMMINS A","6078286","2023-08-04 04:00","2023","08","04","04:00","","15.0","","14.3","","96","","","","33","","12","","9.7","","97.88","","","","","","Fog"
"-81.38","48.57","TIMMINS A","6078286","2023-08-04 05:00","2023","08","04","05:00","","14.2","","13.8","","97","","","","33","","15","","4.8","","97.93","","","","","","Fog"
"-81.38","48.57","TIMMINS A","6078286","2023-08-04 06:00","2023","08","04","06:00","","13.6","","12.9","","95","","","","33","","10","","8.1","","97.99","","","","","","Fog"
"-81.38","48.57","TIMMINS A","6078286","2023-08-04 07:00","2023","08","04","07:00","","13.4","","12.2","","92","","","","33","","12","","9.7","","98.06","","","","","","Fog"
"-81.38","48.57","TIMMINS A","6078286","2023-08-04 08:00","2023","08","04","08:00","","13.1","","11.4","","90","","","","34","","19","","16.1","","98.16","","","","","","NA"
"-81.38","48.57","TIMMINS A","6078286","2023-08-04 09:00","2023","08","04","09:00","","14.0","","11.3","","84","","","","35","","18","","24.1","","98.18","","","","","","NA"
"-81.38","48.57","TIMMINS A","6078286","2023-08-04 10:00","2023","08","04","10:00","","16.8","","12.8","","77","","","","34","","10","","24.1","","98.23","","","","","","Mostly Cloudy"
"-81.38","48.57","TIMMINS A","6078286","2023-08-04 11:00","2023","08","04","11:00","","18.1","","12.6","","70","","","","35","","13","","24.1","","98.22","","","","","","NA"
"-81.38","48.57","TIMMINS A","6078286","2023-08-04 12:00","2023","08","04","12:00","","19.4","","11.5","","60","","","","33","","18","","24.1","","98.25","","","","","","NA"
"-81.38","48.57","TIMMINS A","6078286","2023-08-04 13:00","2023","08","04","13:00","","19.4","","11.8","","61","","","","33","","20","","24.1","","98.25","","","","","","Mostly Cloudy"
"-81.38","48.57","TIMMINS A","6078286","2023-08-04 14:00","2023","08","04","14:00","","19.6","","10.0","","53","","","","1","","17","","24.1","","98.27","","","","","","NA"
"-81.38","48.57","TIMMINS A","6078286","2023-08-04 15:00","2023","08","04","15:00","","19.1","","10.4","","57","","","","34","","18","","24.1","","98.28","","","","","","NA"
"-81.38","48.57","TIMMINS A","6078286","2023-08-04 16:00","2023","08","04","16:00","","20.2","","10.5","","53","","","","36","","22","","24.1","","98.31","","","","","","Mostly Cloudy"
"-81.38","48.57","TIMMINS A","6078286","2023-08-04 17:00","2023","08","04","17:00","","20.4","","10.8","","54","","","","33","","13","","24.1","","98.34","","","","","","NA"
"-81.38","48.57","TIMMINS A","6078286","2023-08-04 18:00","2023","08","04","18:00","","20.0","","8.2","","46","","","","1","","14","","24.1","","98.33","","","","","","NA"
"-81.38","48.57","TIMMINS A","6078286","2023-08-04 19:00","2023","08","04","19:00","","19.1","","9.9","","55","","","","34","","7","","24.1","","98.33","","","","","","Clear"
"-81.38","48.57","TIMMINS A","6078286","2023-08-04 20:00","2023","08","04","20:00","","14.4","","11.4","","82","","","","31","","7","","24.1","","98.34","","","","","","NA"
"-81.38","48.57","TIMMINS A","6078286","2023-08-04 21:00","2023","08","04","21:00","","12.6","","10.7","","88","","","","30","","7","","24.1","","98.36","","","","","","NA"
"-81.38","48.57","TIMMINS A","6078286","2023-08-04 22:00","2023","08","04","22:00","","12.4","","9.8","","84","","","","32","","9","","24.1","","98.35","","","","","","Mainly Clear"
"-81.38","48.57","TIMMINS A","6078286","2023-08-04 23:00","2023","08","04","23:00","","9.9","","8.6","","92","","","","31","","7","","24.1","","98.38","","","","","","NA"
"-81.38","48.57","TIMMINS A","6078286","2023-08-05 00:00","2023","08","05","00:00","","11.4","","9.5","","88","","","","33","","9","","24.1","","98.43","","","","","","NA"
"-81.38","48.57","TIMMINS A","6078286","2023-08-05 01:00","2023","08","05","01:00","","10.2","","9.0","","92","","","","30","","7","","24.1","","98.48","","","","","","Mainly Clear"
"-81.38","48.57","TIMMINS A","6078286","2023-08-05 02:00","2023","08","05","02:00","","8.7","","8.0","","95","","","","30","","7","","24.1","","98.48","","","","","","NA"
"-81.38","48.57","TIMMINS A","6078286","2023-08-05 03:00","2023","08","05","03:00","","7.3","","7.0","","98","","","","26","","3","","24.1","","98.50","","","","","","NA"
"-81.38","48.57","TIMMINS A","6078286","2023-08-05 04:00","2023","08","05","04:00","","5.2","","4.8","","97","","","","26","","4","","24.1","","98.51","","","","","","Mainly Clear"
"-81.38","48.57","TIMMINS A","6078286","2023-08-05 05:00","2023","08","05","05:00","","5.3","","4.9","","98","","","","","","0","","24.1","","98.52","","","","","","NA"
"-81.38","48.57","TIMMINS A","6078286","2023-08-05 06:00","2023","08","05","06:00","","6.4","","6.0","","97","","","","27","","4","","24.1","","98.55","","","","","","NA"
"-81.38","48.57","TIMMINS A","6078286","2023-08-05 07:00","2023","08","05","07:00","","11.2","","9.6","","90","","","","28","","5","","24.1","","98.59","","","","","","Mainly Clear"
"-81.38","48.57","TIMMINS A","6078286","2023-08-05 08:00","2023","08","05","08:00","","15.4","","11.0","","75","","","","28","","7","","24.1","","98.61","","","","","","NA"
"-81.38","48.57","TIMMINS A","6078286","2023-08-05 09:00","2023","08","05","09:00","","18.6","","8.7","","52","","","","30","","8","","24.1","","98.62","","","","","","NA"
"-81.38","48.57","TIMMINS A","6078286","2023-08-05 10:00","2023","08","05","10:00","","20.3","","9.6","","50","","","","36","","10","","24.1","","98.60","","","","","","Mainly Clear"
"-81.38","48.57","TIMMINS A","6078286","2023-08-05 11:00","2023","08","05","11:00","","21.1","","8.7","","45","","","","32","","19","","24.1","","98.56","","","","","","NA"
"-81.38","48.57","TIMMINS A","6078286","2023-08-05 12:00","2023","08","05","12:00","","20.8","","8.2","","44","","","","30","","10","","24.1","","98.53","","","","","","NA"
"-81.38","48.57","TIMMINS A","6078286","2023-08-05 13:00","2023","08","05","13:00","","22.1","","8.7","","42","","","","33","","17","","24.1","","98.49","","","","","","Mostly Cloudy"
"-81.38","48.57","TIMMINS A","6078286","2023-08-05 14:00","2023","08","05","14:00","","22.5","","7.5","","38","","","","25","","5","","24.1","","98.47","","","","","","NA"
"-81.38","48.57","TIMMINS A","6078286","2023-08-05 15:00","2023","08","05","15:00","","22.6","","8.0","","39","","","","33","","4","","24.1","","98.41","","","","","","NA"
"-81.38","48.57","TIMMINS A","6078286","2023-08-05 16:00","2023","08","05","16:00","","22.4","","7.5","","38","","","","28","","5","","24.1","","98.37","","","","","","Mainly Clear"
"-81.38","48.57","TIMMINS A","6078286","2023-08-05 17:00","2023","08","05","17:00","","22.3","","9.2","","43","","","","32","","4","","24.1","","98.35","","","","","","NA"
"-81.38","48.57","TIMMINS A","6078286","2023-08-05 18:00","2023","08","05","18:00","","23.0","","8.0","","38","","","","","","0","","24.1","","98.33","","","","","","NA"
"-81.38","48.57","TIMMINS A","6078286","2023-08-05 19:00","2023","08","05","19:00","","21.5","","10.5","","49","","","","34","","5","","24.1","","98.33","","","","","","Clear"
"-81.38","48.57","TIMMINS A","6078286","2023-08-05 20:00","2023","08","05","20:00","","14.9","","12.4","","85","","","","","","0","","24.1","","98.33","","","","","","NA"
"-81.38","48.57","TIMMINS A","6078286","2023-08-05 21:00","2023","08","05","21:00","","12.6","","10.9","","89","","","","","","0","","24.1","","98.36","","","","","","NA"
"-81.38","48.57","TIMMINS A","6078286","2023-08-05 22:00","2023","08","05","22:00","","11.7","","10.4","","91","","","","","","0","","24.1","","98.33","","","","","","Mainly Clear"
"-81.38","48.57","TIMMINS A","6078286","2023-08-05 23:00","2023","08","05","23:00","","10.1","","9.3","","95","","","","","","0","","24.1","","98.34","","","","","","NA"
"-81.38","48.57","TIMMINS A","6078286","2023-08-06 00:00","2023","08","06","00:00","","9.7","","9.3","","97","","","","","","0","","24.1","","98.33","","","","","","NA"
"-81.38","48.57","TIMMINS A","6078286","2023-08-06 01:00","2023","08","06","01:00","","8.7","","7.9","","95","","","","19","","3","","24.1","","98.30","","","","","","Clear"
"-81.38","48.57","TIMMINS A","6078286","2023-08-06 02:00","2023","08","06","02:00","","8.5","","7.8","","95","","","","","","0","","24.1","","98.29","","","","","","NA"
"-81.38","48.57","TIMMINS A","6078286","2023-08-06 03:00","2023","08","06","03:00","","8.5","","7.7","","95","","","","18","","3","","24.1","","98.29","","","","","","NA"
"-81.38","48.57","TIMMINS A","6078286","2023-08-06 04:00","2023","08","06","04:00","","6.9","","6.2","","96","","","","19","","4","","24.1","","98.27","","","","","","Mainly Clear"
"-81.38","48.57","TIMMINS A","6078286","2023-08-06 05:00","2023","08","06","05:00","","7.8","","7.4","","97","","","","19","","4","","24.1","","98.28","","","","","","NA"
"-81.38","48.57","TIMMINS A","6078286","2023-08-06 06:00","2023","08","06","06:00","","8.8","","8.1","","95","","","","19","","6","","24.1","","98.28","","","","","","NA"
"-81.38","48.57","TIMMINS A","6078286","2023-08-06 07:00","2023","08","06","07:00","","12.5","","10.8","","89","","","","17","","8","","24.1","","98.25","","","","","","Mainly Clear"
"-81.38","48.57","TIMMINS A","6078286","2023-08-06 08:00","2023","08","06","08:00","","16.7","","11.7","","72","","","","19","","8","","24.1","","98.26","","","","","","NA"
"-81.38","48.57","TIMMINS A","6078286","2023-08-06 09:00","2023","08","06","09:00","","20.1","","10.7","","54","","","","17","","5","","24.1","","98.24","","","","","","NA"
"-81.38","48.57","TIMMINS A","6078286","2023-08-06 10:00","2023","08","06","10:00","","21.6","","11.2","","51","","","","18","","7","","24.1","","98.21","","","","","","Mostly Cloudy"
"-81.38","48.57","TIMMINS A","6078286","2023-08-06 11:00","2023","08","06","11:00","","23.4","","10.1","","42","","","","11","","8","","24.1","","98.16","","25","","","","NA"
"-81.38","48.57","TIMMINS A","6078286","2023-08-06 12:00","2023","08","06","12:00","","24.1","","10.4","","42","","","","21","","5","","24.1","","98.12","","26","","","","NA"
"-81.38","48.57","TIMMINS A","6078286","2023-08-06 13:00","2023","08","06","13:00","","24.5","","11.6","","44","","","","18","","14","","24.1","","98.06","","27","","","","Mostly Cloudy"
"-81.38","48.57","TIMMINS A","6078286","2023-08-06 14:00","2023","08","06","14:00","","25.4","","10.2","","38","","","","21","","10","","24.1","","98.02","","27","","","","NA"
"-81.38","48.57","TIMMINS A","6078286","2023-08-06 15:00","2023","08","06","15:00","","25.9","","12.1","","42","","","","19","","5","","24.1","","97.96","","28","","","","NA"
"-81.38","48.57","TIMMINS A","6078286","2023-08-06 16:00","2023","08","06","16:00","","25.1","","10.3","","39","","","","17","","4","","24.1","","97.95","","27","","","","Mostly Cloudy"
"-81.38","48.57","TIMMINS A","6078286","2023-08-06 17:00","2023","08","06","17:00","","25.8","","11.1","","39","","","","21","","4","","24.1","","97.91","","28","","","","NA"
"-81.38","48.57","TIMMINS A","6078286","2023-08-06 18:00","2023","08","06","18:00","","24.8","","11.7","","43","","","","15","","5","","24.1","","97.87","","27","","","","NA"
"-81.38","48.57","TIMMINS A","6078286","2023-08-06 19:00","2023","08","06","19:00","","22.2","","14.8","","62","","","","","","0","","24.1","","97.83","","26","","","","Mostly Cloudy"
"-81.38","48.57","TIMMINS A","6078286","2023-08-06 20:00","2023","08","06","20:00","","18.1","","14.9","","82","","","","4","","4","","24.1","","97.85","","","","","","NA"
"-81.38","48.57","TIMMINS A","6078286","2023-08-06 21:00","2023","08","06","21:00","","16.7","","13.7","","82","","","","12","","5","","24.1","","97.83","","","","","","NA"
"-81.38","48.57","TIMMINS A","6078286","2023-08-06 22:00","2023","08","06","22:00","","17.7","","12.5","","71","","","","11","","9","","24.1","","97.82","","","","","","Mostly Cloudy"
"-81.38","48.57","TIMMINS A","6078286","2023-08-06 23:00","2023","08","06","23:00","","15.2","","12.6","","84","","","","12","","4","","24.1","","97.82","","","","","","NA"
"-81.38","48.57","TIMMINS A","6078286","2023-08-07 00:00","2023","08","07","00:00","","14.7","","12.5","","86","","","","","","0","","24.1","","97.81","","","","","","NA"
"-81.38","48.57","TIMMINS A","6078286","2023-08-07 01:00","2023","08","07","01:00","","15.1","","12.4","","84","","","","18","","5","","24.1","","97.79","","","","","","Mostly Cloudy"
"-81.38","48.57","TIMMINS A","6078286","2023-08-07 02:00","2023","08","07","02:00","","14.2","","12.5","","89","","","","16","","5","","24.1","","97.77","","","","","","NA"
"-81.38","48.57","TIMMINS A","6078286","2023-08-07 03:00","2023","08","07","03:00","","14.3","","12.3","","87","","","","12","","3","","24.1","","97.73","","","","","","NA"
"-81.38","48.57","TIMMINS A","6078286","2023-08-07 04:00","2023","08","07","04:00","","13.7","","12.4","","92","","","","15","","3","","24.1","","97.68","","","","","","Mostly Cloudy"
"-81.38","48.57","TIMMINS A","6078286","2023-08-07 05:00","2023","08","07","05:00","","13.6","","12.4","","92","","","","","","0","","24.1","","97.69","","","","","","NA"
"-81.38","48.57","TIMMINS A","6078286","2023-08-07 06:00","2023","08","07","06:00","","13.2","","12.4","","95","","","","16","","3","","24.1","","97.67","","","","","","NA"
"-81.38","48.57","TIMMINS A","6078286","2023-08-07 07:00","2023","08","07","07:00","","15.7","","13.7","","88","","","","15","","4","","24.1","","97.70","","","","","","Mostly Cloudy"
"-81.38","48.57","TIMMINS A","6078286","2023-08-07 08:00","2023","08","07","08:00","","16.2","","13.7","","85","","","","","","0","","24.1","","97.68","","","","","","NA"
"-81.38","48.57","TIMMINS A","6078286","2023-08-07 09:00","2023","08","07","09:00","","18.1","","13.4","","74","","","","","","0","","24.1","","97.70","","","","","","NA"
"-81.38","48.57","TIMMINS A","6078286","2023-08-07 10:00","2023","08","07","10:00","","21.7","","14.2","","62","","","","16","","8","","24.1","","97.68","","25","","","","Mostly Cloudy"
"-81.38","48.57","TIMMINS A","6078286","2023-08-07 11:00","2023","08","07","11:00","","22.6","","11.9","","50","","","","20","","6","","24.1","","97.62","","25","","","","NA"
"-81.38","48.57","TIMMINS A","6078286","2023-08-07 12:00","2023","08","07","12:00","","22.7","","13.1","","54","","","","14","","9","","24.1","","97.59","","26","","","","NA"
"-81.38","48.57","TIMMINS A","6078286","2023-08-07 13:00","2023","08","07","13:00","","23.6","","11.3","","45","","","","9","","12","","24.1","","97.56","","26","","","","Cloudy"
"-81.38","48.57","TIMMINS A","6078286","2023-08-07 14:00","2023","08","07","14:00","","23.9","","12.4","","48","","","","11","","7","","24.1","","97.54","","26","","","","NA"
"-81.38","48.57","TIMMINS A","6078286","2023-08-07 15:00","2023","08","07","15:00","","23.8","","13.0","","50","","","","12","","5","","24.1","","97.52","","27","","","","NA"
"-81.38","48.57","TIMMINS A","6078286","2023-08-07 16:00","2023","08","07","16:00","","23.6","","13.3","","52","","","","15","","14","","24.1","","97.52","","27","","","","Cloudy"
"-81.38","48.57","TIMMINS A","6078286","2023-08-07 17:00","2023","08","07","17:00","","22.8","","12.4","","51","","","","17","","9","","24.1","","97.52","","25","","","","NA"
"-81.38","48.57","TIMMINS A","6078286","2023-08-07 18:00","2023","08","07","18:00","","22.8","","11.1","","47","","","","16","","19","","24.1","","97.50","","25","","","","NA"
"-81.38","48.57","TIMMINS A","6078286","2023-08-07 19:00","2023","08","07","19:00","","20.8","","10.9","","53","","","","15","","11","","24.1","","97.52","","","","","","Mostly Cloudy"
"-81.38","48.57","TIMMINS A","6078286","2023-08-07 20:00","2023","08","07","20:00","","18.2","","10.4","","60","","","","14","","12","","24.1","","97.51","","","","","","NA"
"-81.38","48.57","TIMMINS A","6078286","2023-08-07 21:00","2023","08","07","21:00","","13.6","","10.6","","82","","","","15","","7","","24.1","","97.53","","","","","","NA"
"-81.38","48.57","TIMMINS A","6078286","2023-08-07 22:00","2023","08","07","22:00","","11.2","","9.8","","91","","","","36","","3","","24.1","","97.52","","","","","","Mostly Cloudy"
"-81.38","48.57","TIMMINS A","6078286","2023-08-07 23:00","2023","08","07","23:00","","10.5","","9.2","","92","","","","","","0","","24.1","","97.49","","","","","","NA"
"-81.38","48.57","TIMMINS A","6078286","2023-08-08 00:00","2023","08","08","00:00","","10.6","","9.6","","94","","","","11","","4","","24.1","","97.47","","","","","","NA"
"-81.38","48.57","TIMMINS A","6078286","2023-08-08 01:00","2023","08","08","01:00","","10.2","","9.6","","97","","","","34","","3","","24.1","","97.46","","","","","","Mostly Cloudy"
"-81.38","48.57","TIMMINS A","6078286","2023-08-08 02:00","2023","08","08","02:00","","9.1","","8.5","","96","","","","36","","3","","24.1","","97.44","","","","","","NA"
"-81.38","48.57","TIMMINS A","6078286","2023-08-08 03:00","2023","08","08","03:00","","7.6","","7.1","","97","","","","","","0","","24.1","","97.43","","","","","","NA"
"-81.38","48.57","TIMMINS A","6078286","2023-08-08 04:00","2023","08","08","04:00","","7.0","","6.5","","97","","","","36","","3","","24.1","","97.41","","","","","","Mostly Cloudy"
"-81.38","48.57","TIMMINS A","6078286","2023-08-08 05:00","2023","08","08","05:00","","6.8","","6.0","","95","","","","","","0","","24.1","","97.43","","","","","","NA"
"-81.38","48.57","TIMMINS A","6078286","2023-08-08 06:00","2023","08","08","06:00","","8.2","","7.3","","94","","","","29","","4","","24.1","","97.44","","","","","","NA"
"-81.38","48.57","TIMMINS A","6078286","2023-08-08 07:00","2023","08","08","07:00","","11.7","","10.9","","95","","","","","","0","","24.1","","97.47","","","","","","Mainly Clear"
"-81.38","48.57","TIMMINS A","6078286","2023-08-08 08:00","2023","08","08","08:00","","16.7","","12.0","","74","","","","28","","5","","24.1","","97.50","","","","","","NA"
"-81.38","48.57","TIMMINS A","6078286","2023-08-08 09:00","2023","08","08","09:00","","18.7","","10.8","","60","","","","28","","8","","24.1","","97.50","","","","","","NA"
"-81.38","48.57","TIMMINS A","6078286","2023-08-08 10:00","2023","08","08","10:00","","19.8","","11.1","","57","","","","29","","5","","24.1","","97.47","","","","","","Mostly Cloudy"
"-81.38","48.57","TIMMINS A","6078286","2023-08-08 11:00","2023","08","08","11:00","","22.1","","10.2","","46","","","","","","0","","24.1","","97.44","","","","","","NA"
"-81.38","48.57","TIMMINS A","6078286","2023-08-08 12:00","2023","08","08","12:00","","23.2","","11.1","","46","","","","31","","5","","24.1","","97.38","","25","","","","NA"
"-81.38","48.57","TIMMINS A","6078286","2023-08-08 13:00","2023","08","08","13:00","","24.9","","11.3","","42","","","","33","","13","","24.1","","97.31","","27","","","","Mostly Cloudy"
"-81.38","48.57","TIMMINS A","6078286","2023-08-08 14:00","2023","08","08","14:00","","25.1","","12.4","","45","","","","24","","8","","24.1","","97.26","","28","","","","NA"
"-81.38","48.57","TIMMINS A","6078286","2023-08-08 15:00","2023","08","08","15:00","","25.9","","12.3","","42","","","","30","","13","","24.1","","97.24","","28","","","","NA"
"-81.38","48.57","TIMMINS A","6078286","2023-08-08 16:00","2023","08","08","16:00","","24.9","","13.2","","48","","","","28","","8","","24.1","","97.23","","28","","","","Mostly Cloudy"
"-81.38","48.57","TIMMINS A","6078286","2023-08-08 17:00","2023","08","08","17:00","","23.6","","14.2","","55","","","","27","","11","","24.1","","97.22","","27","","","","NA"
"-81.38","48.57","TIMMINS A","6078286","2023-08-08 18:00","2023","08","08","18:00","","24.0","","15.1","","57","","","","25","","7","","24.1","","97.21","","28","","","","NA"
"-81.38","48.57","TIMMINS A","6078286","2023-08-08 19:00","2023","08","08","19:00","","22.2","","14.9","","63","","","","27","","7","","24.1","","97.18","","26","","","","Mainly Clear"
"-81.38","48.57","TIMMINS A","6078286","2023-08-08 20:00","2023","08","08","20:00","","18.0","","15.4","","85","","","","27","","5","","24.1","","97.18","","","","","","NA"
"-81.38","48.57","TIMMINS A","6078286","2023-08-08 21:00","2023","08","08","21:00","","16.8","","14.7","","88","","","","26","","6","","24.1","","97.20","","","","","","NA"
"-81.38","48.57","TIMMINS A","6078286","2023-08-08 22:00","2023","08","08","22:00","","15.1","","13.3","","89","","","","27","","7","","24.1","","97.17","","","","","","Mainly Clear"
"-81.38","48.57","TIMMINS A","6078286","2023-08-08 23:00","2023","08","08","23:00","","13.6","","12.8","","95","","","","24","","4","","24.1","","97.14","","","","","","NA"
"-81.38","48.57","TIMMINS A","6078286","2023-08-09 00:00","2023","08","09","00:00","","14.3","","13.4","","94","","","","26","","7","","24.1","","97.14","","","","","","NA"
"-81.38","48.57","TIMMINS A","6078286","2023-08-09 01:00","2023","08","09","01:00","","12.5","","12.0","","96","","","","","","0","","24.1","","97.09","","","","","","Clear"
"-81.38","48.57","TIMMINS A","6078286","2023-08-09 02:00","2023","08","09","02:00","","12.1","","11.7","","98","","","","21","","4","","24.1","","97.06","","","","","","NA"
"-81.38","48.57","TIMMINS A","6078286","2023-08-09 03:00","2023","08","09","03:00","","11.1","","10.9","","98","","","","19","","6","","24.1","","97.05","","","","","","NA"
"-81.38","48.57","TIMMINS A","6078286","2023-08-09 04:00","2023","08","09","04:00","","11.9","","11.4","","96","","","","24","","5","","24.1","","97.06","","","","","","Mainly Clear"
"-81.38","48.57","TIMMINS A","6078286","2023-08-09 05:00","2023","08","09","05:00","","12.3","","12.0","","98","","","","19","","9","","24.1","","97.08","","","","","","NA"
"-81.38","48.57","TIMMINS A","6078286","2023-08-09 06:00","2023","08","09","06:00","","12.6","","12.3","","98","","","","18","","8","","24.1","","97.09","","","","","","NA"
"-81.38","48.57","TIMMINS A","6078286","2023-08-09 07:00","2023","08","09","07:00","","14.8","","13.8","","94","","","","22","","7","","24.1","","97.10","","","","","","Mainly Clear"
"-81.38","48.57","TIMMINS A","6078286","2023-08-09 08:00","2023","08","09","08:00","","18.3","","13.8","","75","","","","26","","9","","24.1","","97.09","","","","","","NA"
"-81.38","48.57","TIMMINS A","6078286","2023-08-09 09:00","2023","08","09","09:00","","19.9","","13.6","","67","","","","27","","13","","24.1","","97.08","","","","","","NA"
"-81.38","48.57","TIMMINS A","6078286","2023-08-09 10:00","2023","08","09","10:00","","19.9","","14.1","","69","","","","28","","9","","24.1","","97.06","","","","","","Mostly Cloudy"
"-81.38","48.57","TIMMINS A","6078286","2023-08-09 11:00","2023","08","09","11:00","","18.7","","14.4","","76","","","","24","","7","","24.1","","97.06","","","","","","Rain Showers"
"-81.38","48.57","TIMMINS A","6078286","2023-08-09 12:00","2023","08","09","12:00","","19.0","","14.6","","75","","","","19","","13","","24.1","","96.99","","","","","","NA"
"-81.38","48.57","TIMMINS A","6078286","2023-08-09 13:00","2023","08","09","13:00","","22.0","","14.6","","62","","","","21","","15","","24.1","","96.94","","26","","","","Mainly Clear"
"-81.38","48.57","TIMMINS A","6078286","2023-08-09 14:00","2023","08","09","14:00","","23.8","","14.8","","57","","","","19","","18","","24.1","","96.85","","28","","","","NA"
"-81.38","48.57","TIMMINS A","6078286","2023-08-09 15:00","2023","08","09","15:00","","25.2","","13.5","","48","","","","22","","11","","24.1","","96.79","","28","","","","NA"
"-81.38","48.57","TIMMINS A","6078286","2023-08-09 16:00","2023","08","09","16:00","","23.4","","14.2","","56","","","","27","","8","","24.1","","96.72","","27","","","","Rain Showers"
"-81.38","48.57","TIMMINS A","6078286","2023-08-09 17:00","2023","08","09","17:00","","23.4","","16.9","","67","","","","35","","4","","24.1","","96.71","","29","","","","Rain Showers"
"-81.38","48.57","TIMMINS A","6078286","2023-08-09 18:00","2023","08","09","18:00","","16.3","","14.6","","89","","","","31","","18","","11.3","","96.80","","","","","","Thunderstorms,Rain Showers"
"-81.38","48.57","TIMMINS A","6078286","2023-08-09 19:00","2023","08","09","19:00","","16.8","","15.8","","94","","","","11","","3","","16.1","","96.75","","","","","","Mostly Cloudy"
"-81.38","48.57","TIMMINS A","6078286","2023-08-09 20:00","2023","08","09","20:00","","15.7","","15.4","","98","","","","18","","8","","24.1","","96.77","","","","","","NA"
"-81.38","48.57","TIMMINS A","6078286","2023-08-09 21:00","2023","08","09","21:00","","16.5","","15.8","","96","","","","7","","4","","19.3","","96.83","","","","","","Rain Showers"
"-81.38","48.57","TIMMINS A","6078286","2023-08-09 22:00","2023","08","09","22:00","","15.7","","15.2","","97","","","","","","0","","24.1","","96.82","","","","","","Thunderstorms,Rain Showers"
"-81.38","48.57","TIMMINS A","6078286","2023-08-09 23:00","2023","08","09","23:00","","15.5","","14.7","","95","","","","18","","7","","24.1","","96.78","","","","","","Thunderstorms"
"-81.38","48.57","TIMMINS A","6078286","2023-08-10 00:00","2023","08","10","00:00","","13.6","","13.3","","98","","","","19","","7","","24.1","","96.73","","","","","","NA"
"-81.38","48.57","TIMMINS A","6078286","2023-08-10 01:00","2023","08","10","01:00","","13.5","","12.8","","95","","","","25","","6","","24.1","","96.70","","","","","","Mainly Clear"
"-81.38","48.57","TIMMINS A","6078286","2023-08-10 02:00","2023","08","10","02:00","","11.4","","11.1","","98","","","","29","","6","","24.1","","96.69","","","","","","NA"
"-81.38","48.57","TIMMINS A","6078286","2023-08-10 03:00","2023","08","10","03:00","","11.5","","11.2","","98","","","","28","","8","","24.1","","96.71","","","","","","NA"
"-81.38","48.57","TIMMINS A","6078286","2023-08-10 04:00","2023","08","10","04:00","","11.3","","11.0","","98","","","","28","","9","","24.1","","96.69","","","","","","Mostly Cloudy"
"-81.38","48.57","TIMMINS A","6078286","2023-08-10 05:00","2023","08","10","05:00","","10.9","","10.6","","98","","","","28","","8","","24.1","","96.70","","","","","","NA"
"-81.38","48.57","TIMMINS A","6078286","2023-08-10 06:00","2023","08","10","06:00","","11.2","","10.8","","98","","","","27","","5","","24.1","","96.76","","","","","","NA"
"-81.38","48.57","TIMMINS A","6078286","2023-08-10 07:00","2023","08","10","07:00","","12.2","","11.7","","97","","","","29","","4","","24.1","","96.77","","","","","","Mostly Cloudy"
"-81.38","48.57","TIMMINS A","6078286","2023-08-10 08:00","2023","08","10","08:00","","14.8","","12.8","","88","","","","31","","10","","24.1","","96.80","","","","","","NA"
"-81.38","48.57","TIMMINS A","6078286","2023-08-10 09:00","2023","08","10","09:00","","16.4","","13.0","","80","","","","32","","11","","24.1","","96.80","","","","","","NA"
"-81.38","48.57","TIMMINS A","6078286","2023-08-10 10:00","2023","08","10","10:00","","18.0","","12.2","","68","","","","32","","14","","24.1","","96.82","","","","","","Mostly Cloudy"
"-81.38","48.57","TIMMINS A","6078286","2023-08-10 11:00","2023","08","10","11:00","","16.5","","11.5","","72","","","","31","","16","","24.1","","96.87","","","","","","NA"
"-81.38","48.57","TIMMINS A","6078286","2023-08-10 12:00","2023","08","10","12:00","","15.6","","11.0","","74","","","","29","","11","","24.1","","96.87","","","","","","NA"
"-81.38","48.57","TIMMINS A","6078286","2023-08-10 13:00","2023","08","10","13:00","","16.4","","10.8","","69","","","","27","","11","","24.1","","96.85","","","","","","Rain Showers"
"-81.38","48.57","TIMMINS A","6078286","2023-08-10 14:00","2023","08","10","14:00","","17.8","","11.6","","66","","","","31","","15","","24.1","","96.82","","","","","","Rain Showers"
"-81.38","48.57","TIMMINS A","6078286","2023-08-10 15:00","2023","08","10","15:00","","17.6","","11.4","","67","","","","29","","14","","24.1","","96.81","","","","","","NA"
"-81.38","48.57","TIMMINS A","6078286","2023-08-10 16:00","2023","08","10","16:00","","19.0","","10.3","","57","","","","28","","15","","24.1","","96.82","","","","","","Mostly Cloudy"
"-81.38","48.57","TIMMINS A","6078286","2023-08-10 17:00","2023","08","10","17:00","","19.4","","11.6","","60","","","","30","","12","","24.1","","96.84","","","","","","NA"
"-81.38","48.57","TIMMINS A","6078286","2023-08-10 18:00","2023","08","10","18:00","","19.5","","12.5","","64","","","","34","","16","","19.3","","96.90","","","","","","Rain Showers"
"-81.38","48.57","TIMMINS A","6078286","2023-08-10 19:00","2023","08","10","19:00","","14.3","","12.9","","91","","","","35","","17","","19.3","","96.98","","","","","","Rain Showers"
"-81.38","48.57","TIMMINS A","6078286","2023-08-10 20:00","2023","08","10","20:00","","13.7","","13.3","","98","","","","22","","3","","24.1","","97.02","","","","","","NA"
"-81.38","48.57","TIMMINS A","6078286","2023-08-10 21:00","2023","08","10","21:00","","12.6","","12.1","","96","","","","27","","4","","24.1","","97.08","","","","","","NA"
"-81.38","48.57","TIMMINS A","6078286","2023-08-10 22:00","2023","08","10","22:00","","12.8","","12.3","","97","","","","24","","3","","24.1","","97.13","","","","","","Mostly Cloudy"
"-81.38","48.57","TIMMINS A","6078286","2023-08-10 23:00","2023","08","10","23:00","","13.0","","12.1","","94","","","","30","","10","","24.1","","97.15","","","","","","NA"
"-81.38","48.57","TIMMINS A","6078286","2023-08-11 00:00","2023","08","11","00:00","","13.4","","13.0","","97","","","","34","","17","","24.1","","97.17","","","","","","NA"
"-81.38","48.57","TIMMINS A","6078286","2023-08-11 01:00","2023","08","11","01:00","","13.4","","12.8","","96","","","","33","","12","","24.1","","97.20","","","","","","Clear"
"-81.38","48.57","TIMMINS A","6078286","2023-08-11 02:00","2023","08","11","02:00","","13.1","","12.4","","96","","","","32","","11","","24.1","","97.23","","","","","","NA"
"-81.38","48.57","TIMMINS A","6078286","2023-08-11 03:00","2023","08","11","03:00","","13.1","","12.4","","96","","","","31","","8","","24.1","","97.29","","","","","","NA"
"-81.38","48.57","TIMMINS A","6078286","2023-08-11 04:00","2023","08","11","04:00","","13.0","","12.3","","95","","","","35","","9","","24.1","","97.31","","","","","","Cloudy"
"-81.38","48.57","TIMMINS A","6078286","2023-08-11 05:00","2023","08","11","05:00","","12.7","","11.9","","95","","","","33","","11","","24.1","","97.43","","","","","","Rain"
"-81.38","48.57","TIMMINS A","6078286","2023-08-11 06:00","2023","08","11","06:00","","11.8","","11.1","","95","","","","34","","14","","9.7","","97.43","","","","","","Fog"
"-81.38","48.57","TIMMINS A","6078286","2023-08-11 07:00","2023","08","11","07:00","","12.0","","10.4","","90","","","","28","","9","","24.1","","97.50","","","","","","Cloudy"
"-81.38","48.57","TIMMINS A","6078286","2023-08-11 08:00","2023","08","11","08:00","","12.3","","10.2","","87","","","","28","","8","","24.1","","97.54","","","","","","NA"
"-81.38","48.57","TIMMINS A","6078286","2023-08-11 09:00","2023","08","11","09:00","","12.3","","10.1","","86","","","","36","","8","","24.1","","97.59","","","","","","NA"
"-81.38","48.57","TIMMINS A","6078286","2023-08-11 10:00","2023","08","11","10:00","","12.6","","10.4","","87","","","","32","","9","","24.1","","97.64","","","","","","Cloudy"
"-81.38","48.57","TIMMINS A","6078286","2023-08-11 11:00","2023","08","11","11:00","","13.9","","10.1","","78","","","","33","","10","","24.1","","97.59","","","","","","NA"
"-81.38","48.57","TIMMINS A","6078286","2023-08-11 12:00","2023","08","11","12:00","","15.0","","11.0","","76","","","","5","","7","","24.1","","97.56","","","","","","NA"
"-81.38","48.57","TIMMINS A","6078286","2023-08-11 13:00","2023","08","11","13:00","","16.9","","10.3","","65","","","","10","","5","","24.1","","97.56","","","","","","Mostly Cloudy"
"-81.38","48.57","TIMMINS A","6078286","2023-08-11 14:00","2023","08","11","14:00","","18.4","","10.9","","62","","","","17","","10","","24.1","","97.54","","","","","","NA"
"-81.38","48.57","TIMMINS A","6078286","2023-08-11 15:00","2023","08","11","15:00","","19.0","","11.3","","61","","","","11","","12","","24.1","","97.52","","","","","","NA"
"-81.38","48.57","TIMMINS A","6078286","2023-08-11 16:00","2023","08","11","16:00","","19.2","","10.9","","58","","","","18","","8","","24.1","","97.50","","","","","","Mostly Cloudy"
"-81.38","48.57","TIMMINS A","6078286","2023-08-11 17:00","2023","08","11","17:00","","18.3","","11.2","","63","","","","24","","7","","24.1","","97.53","","","","","","NA"
"-81.38","48.57","TIMMINS A","6078286","2023-08-11 18:00","2023","08","11","18:00","","18.1","","10.8","","62","","","","20","","3","","24.1","","97.53","","","","","","NA"
"-81.38","48.57","TIMMINS A","6078286","2023-08-11 19:00","2023","08","11","19:00","","17.0","","11.6","","70","","","","","","0","","24.1","","97.53","","","","","","Cloudy"
"-81.38","48.57","TIMMINS A","6078286","2023-08-11 20:00","2023","08","11","20:00","","15.3","","12.4","","82","","","","7","","7","","24.1","","97.50","","","","","","NA"
"-81.38","48.57","TIMMINS A","6078286","2023-08-11 21:00","2023","08","11","21:00","","15.0","","11.6","","80","","","","10","","8","","24.1","","97.51","","","","","","NA"
"-81.38","48.57","TIMMINS A","6078286","2023-08-11 22:00","2023","08","11","22:00","","13.7","","12.1","","90","","","","","","0","","24.1","","97.50","","","","","","Cloudy"
"-81.38","48.57","TIMMINS A","6078286","2023-08-11 23:00","2023","08","11","23:00","","13.8","","12.0","","89","","","","36","","3","","24.1","","97.49","","","","","","NA"
"-81.38","48.57","TIMMINS A","6078286","2023-08-12 00:00","2023","08","12","00:00","","14.6","","11.5","","82","","","","11","","6","","24.1","","97.48","","","","","","NA"
"-81.38","48.57","TIMMINS A","6078286","2023-08-12 01:00","2023","08","12","01:00","","14.0","","12.3","","89","","","","8","","7","","24.1","","97.48","","","","","","Rain Showers"
"-81.38","48.57","TIMMINS A","6078286","2023-08-12 02:00","2023","08","12","02:00","","13.7","","12.9","","95","","","","8","","10","","24.1","","97.43","","","","","","Rain"
"-81.38","48.57","TIMMINS A","6078286","2023-08-12 03:00","2023","08","12","03:00","","13.7","","12.9","","95","","","","9","","6","","24.1","","97.42","","","","","","NA"
"-81.38","48.57","TIMMINS A","6078286","2023-08-12 04:00","2023","08","12","04:00","","13.6","","12.7","","94","","","","13","","8","","19.3","","97.39","","","","","","Rain"
"-81.38","48.57","TIMMINS A","6078286","2023-08-12 05:00","2023","08","12","05:00","","13.6","","12.8","","95","","","","7","","4","","19.3","","97.37","","","","","","Rain"
"-81.38","48.57","TIMMINS A","6078286","2023-08-12 06:00","2023","08","12","06:00","","13.7","","12.9","","95","","","","9","","8","","24.1","","97.37","","","","","","Rain"
"-81.38","48.57","TIMMINS A","6078286","2023-08-12 07:00","2023","08","12","07:00","","13.9","","13.4","","96","","","","10","","7","","19.3","","97.37","","","","","","Rain"
"-81.38","48.57","TIMMINS A","6078286","2023-08-12 08:00","2023","08","12","08:00","","13.8","","13.3","","97","","","","5","","8","","19.3","","97.35","","","","","","Rain"
"-81.38","48.57","TIMMINS A","6078286","2023-08-12 09:00","2023","08","12","09:00"
"-81.38","48.57","TIMMINS A","6078286","2023-08-12 10:00","2023","08","12","10:00","","14.6","","13.9","","96","","","","8","","14","","4.0","","97.29","","","","","","Rain,Fog"
"-81.38","48.57","TIMMINS A","6078286","2023-08-12 11:00","2023","08","12","11:00","","15.1","","14.5","","96","","","","8","","13","","4.8","","97.28","","","","","","Rain,Fog"
"-81.38","48.57","TIMMINS A","6078286","2023-08-12 12:00","2023","08","12","12:00","","14.8","","14.3","","97","","","","9","","14","","2.4","","97.28","","","","","","Rain,Fog"
"-81.38","48.57","TIMMINS A","6078286","2023-08-12 13:00","2023","08","12","13:00","","14.9","","14.2","","95","","","","9","","16","","4.0","","97.28","","","","","","Rain,Fog"
"-81.38","48.57","TIMMINS A","6078286","2023-08-12 14:00","2023","08","12","14:00","","14.9","","14.1","","95","","","","8","","13","","4.0","","97.29","","","","","","Rain,Fog"
"-81.38","48.57","TIMMINS A","6078286","2023-08-12 15:00","2023","08","12","15:00","","14.9","","14.3","","96","","","","6","","11","","4.0","","97.30","","","","","","Rain,Fog"
"-81.38","48.57","TIMMINS A","6078286","2023-08-12 16:00","2023","08","12","16:00","","14.8","","14.3","","97","","","","5","","14","","4.0","","97.31","","","","","","Rain,Fog"
"-81.38","48.57","TIMMINS A","6078286","2023-08-12 17:00","2023","08","12","17:00","","14.5","","13.8","","95","","","","4","","11","","9.7","","97.35","","","","","","Rain,Fog"
"-81.38","48.57","TIMMINS A","6078286","2023-08-12 18:00","2023","08","12","18:00","","14.1","","13.6","","97","","","","3","","11","","9.7","","97.40","","","","","","Rain,Fog"
"-81.38","48.57","TIMMINS A","6078286","2023-08-12 19:00","2023","08","12","19:00","","13.9","","13.6","","98","","","","2","","10","","4.0","","97.44","","","","","","Rain,Drizzle,Fog"
"-81.38","48.57","TIMMINS A","6078286","2023-08-12 20:00","2023","08","12","20:00","","13.8","","13.4","","98","","","","2","","8","","4.0","","97.47","","","","","","Rain,Drizzle,Fog"
"-81.38","48.57","TIMMINS A","6078286","2023-08-12 21:00","2023","08","12","21:00","","13.9","","13.6","","98","","","","35","","7","","4.8","","97.50","","","","","","Rain,Drizzle,Fog"
"-81.38","48.57","TIMMINS A","6078286","2023-08-12 22:00","2023","08","12","22:00","","14.1","","13.8","","98","","","","35","","12","","9.7","","97.51","","","","","","Fog"
"-81.38","48.57","TIMMINS A","6078286","2023-08-12 23:00","2023","08","12","23:00","","13.8","","13.5","","98","","","","35","","15","","3.6","","97.52","","","","","","Rain,Drizzle,Fog"
"-81.38","48.57","TIMMINS A","6078286","2023-08-13 00:00","2023","08","13","00:00","","13.4","","13.1","","98","","","","36","","12","","4.0","","97.53","","","","","","Rain,Fog"
"-81.38","48.57","TIMMINS A","6078286","2023-08-13 01:00","2023","08","13","01:00","","13.3","","13.0","","98","","","","34","","10","","4.0","","97.53","","","","","","Fog"
"-81.38","48.57","TIMMINS A","6078286","2023-08-13 02:00","2023","08","13","02:00","","13.1","","12.9","","98","","","","34","","14","","3.2","","97.57","","","","","","Fog"
"-81.38","48.57","TIMMINS A","6078286","2023-08-13 03:00","2023","08","13","03:00","","12.9","","12.6","","98","","","","33","","13","","3.2","","97.58","","","","","","Fog"
"-81.38","48.57","TIMMINS A","6078286","2023-08-13 04:00","2023","08","13","04:00","","12.8","","12.5","","98","","","","34","","14","","3.2","","97.62","","","","","","Fog"
"-81.38","48.57","TIMMINS A","6078286","2023-08-13 05:00","2023","08","13","05:00","","12.3","","12.1","","98","","","","32","","17","","2.8","","97.69","","","","","","Fog"
"-81.38","48.57","TIMMINS A","6078286","2023-08-13 06:00","2023","08","13","06:00","","11.4","","11.0","","97","","","","33","","12","","24.1","","97.76","","","","","","NA"
"-81.38","48.57","TIMMINS A","6078286","2023-08-13 07:00","2023","08","13","07:00","","11.2","","10.7","","97","","","","32","","16","","9.7","","97.80","","","","","","Fog"
"-81.38","48.57","TIMMINS A","6078286","2023-08-13 08:00","2023","08","13","08:00","","11.7","","11.0","","96","","","","34","","10","","24.1","","97.83","","","","","","NA"
"-81.38","48.57","TIMMINS A","6078286","2023-08-13 09:00","2023","08","13","09:00","","12.6","","11.2","","92","","","","33","","12","","24.1","","97.85","","","","","","NA"
"-81.38","48.57","TIMMINS A","6078286","2023-08-13 10:00","2023","08","13","10:00","","15.0","","12.2","","83","","","","33","","14","","24.1","","97.90","","","","","","Mostly Cloudy"
"-81.38","48.57","TIMMINS A","6078286","2023-08-13 11:00","2023","08","13","11:00","","16.2","","12.4","","78","","","","32","","11","","24.1","","97.97","","","","","","NA"
"-81.38","48.57","TIMMINS A","6078286","2023-08-13 12:00","2023","08","13","12:00","","18.3","","13.1","","71","","","","31","","14","","24.1","","97.95","","","","","","NA"
"-81.38","48.57","TIMMINS A","6078286","2023-08-13 13:00","2023","08","13","13:00","","18.4","","13.1","","71","","","","35","","18","","16.1","","97.95","","","","","","Mostly Cloudy"
"-81.38","48.57","TIMMINS A","6078286","2023-08-13 14:00","2023","08","13","14:00","","19.7","","13.7","","68","","","","33","","14","","12.9","","97.97","","","","","","NA"
"-81.38","48.57","TIMMINS A","6078286","2023-08-13 15:00","2023","08","13","15:00","","19.3","","13.9","","71","","","","34","","14","","9.7","","98.01","","","","","","Smoke"
"-81.38","48.57","TIMMINS A","6078286","2023-08-13 16:00","2023","08","13","16:00","","19.6","","13.7","","68","","","","34","","15","","9.7","","98.06","","","","","","Smoke"
"-81.38","48.57","TIMMINS A","6078286","2023-08-13 17:00","2023","08","13","17:00","","19.9","","13.9","","68","","","","32","","18","","9.7","","98.07","","","","","","Smoke"
"-81.38","48.57","TIMMINS A","6078286","2023-08-13 18:00","2023","08","13","18:00","","17.6","","12.8","","73","","","","36","","9","","1.6","","98.13","","","","","","Smoke"
"-81.38","48.57","TIMMINS A","6078286","2023-08-13 19:00","2023","08","13","19:00","","15.7","","13.5","","86","","","","27","","5","","3.2","","98.17","","","","","","Smoke"
"-81.38","48.57","TIMMINS A","6078286","2023-08-13 20:00","2023","08","13","20:00","","13.8","","12.3","","91","","","","25","","4","","2.8","","98.17","","","","","","Smoke"
"-81.38","48.57","TIMMINS A","6078286","2023-08-13 21:00","2023","08","13","21:00","","14.0","","13.0","","94","","","","28","","7","","3.2","","98.20","","","","","","Smoke"
"-81.38","48.57","TIMMINS A","6078286","2023-08-13 22:00","2023","08","13","22:00","","13.4","","12.7","","96","","","","30","","9","","4.0","","98.21","","","","","","Smoke"
"-81.38","48.57","TIMMINS A","6078286","2023-08-13 23:00","2023","08","13","23:00","","13.5","","12.3","","93","","","","32","","10","","19.3","","98.23","","","","","","NA"
"-81.38","48.57","TIMMINS A","6078286","2023-08-14 00:00","2023","08","14","00:00","","12.4","","11.6","","95","","","","32","","10","","24.1","","98.22","","","","","","NA"
"-81.38","48.57","TIMMINS A","6078286","2023-08-14 01:00","2023","08","14","01:00","","11.5","","10.9","","96","","","","32","","9","","24.1","","98.20","","","","","","Mainly Clear"
"-81.38","48.57","TIMMINS A","6078286","2023-08-14 02:00","2023","08","14","02:00","","10.8","","10.3","","97","","","","30","","9","","24.1","","98.23","","","","","","NA"
"-81.38","48.57","TIMMINS A","6078286","2023-08-14 03:00","2023","08","14","03:00","","9.9","","9.2","","96","","","","31","","9","","24.1","","98.24","","","","","","NA"
"-81.38","48.57","TIMMINS A","6078286","2023-08-14 04:00","2023","08","14","04:00","","8.5","","7.6","","94","","","","31","","8","","24.1","","98.23","","","","","","Mainly Clear"
"-81.38","48.57","TIMMINS A","6078286","2023-08-14 05:00","2023","08","14","05:00","","7.0","","6.5","","97","","","","31","","9","","24.1","","98.25","","","","","","NA"
"-81.38","48.57","TIMMINS A","6078286","2023-08-14 06:00","2023","08","14","06:00","","7.6","","6.5","","93","","","","30","","8","","24.1","","98.29","","","","","","NA"
"-81.38","48.57","TIMMINS A","6078286","2023-08-14 07:00","2023","08","14","07:00","","9.0","","7.6","","91","","","","30","","8","","24.1","","98.34","","","","","","Mostly Cloudy"
"-81.38","48.57","TIMMINS A","6078286","2023-08-14 08:00","2023","08","14","08:00","","11.6","","8.8","","83","","","","32","","11","","24.1","","98.38","","","","","","NA"
"-81.38","48.57","TIMMINS A","6078286","2023-08-14 09:00","2023","08","14","09:00","","13.8","","9.2","","74","","","","33","","13","","24.1","","98.36","","","","","","NA"
"-81.38","48.57","TIMMINS A","6078286","2023-08-14 10:00","2023","08","14","10:00","","16.2","","10.2","","68","","","","29","","7","","24.1","","98.33","","","","","","Mostly Cloudy"
"-81.38","48.57","TIMMINS A","6078286","2023-08-14 11:00","2023","08","14","11:00","","18.1","","10.6","","61","","","","32","","7","","24.1","","98.32","","","","","","NA"
"-81.38","48.57","TIMMINS A","6078286","2023-08-14 12:00","2023","08","14","12:00","","20.2","","10.3","","52","","","","36","","18","","24.1","","98.28","","","","","","NA"
"-81.38","48.57","TIMMINS A","6078286","2023-08-14 13:00","2023","08","14","13:00","","19.9","","10.9","","56","","","","34","","12","","24.1","","98.23","","","","","","Mostly Cloudy"
"-81.38","48.57","TIMMINS A","6078286","2023-08-14 14:00","2023","08","14","14:00","","21.3","","9.9","","48","","","","34","","11","","24.1","","98.19","","","","","","NA"
"-81.38","48.57","TIMMINS A","6078286","2023-08-14 15:00","2023","08","14","15:00","","21.8","","10.7","","49","","","","33","","10","","24.1","","98.18","","","","","","NA"
"-81.38","48.57","TIMMINS A","6078286","2023-08-14 16:00","2023","08","14","16:00","","21.8","","9.0","","44","","","","3","","14","","24.1","","98.15","","","","","","Mostly Cloudy"
"-81.38","48.57","TIMMINS A","6078286","2023-08-14 17:00","2023","08","14","17:00","","21.4","","9.0","","44","","","","2","","12","","24.1","","98.11","","","","","","NA"
"-81.38","48.57","TIMMINS A","6078286","2023-08-14 18:00","2023","08","14","18:00","","20.9","","9.3","","47","","","","34","","12","","24.1","","98.09","","","","","","NA"
"-81.38","48.57","TIMMINS A","6078286","2023-08-14 19:00","2023","08","14","19:00","","19.3","","9.9","","54","","","","33","","8","","24.1","","98.11","","","","","","Mainly Clear"
"-81.38","48.57","TIMMINS A","6078286","2023-08-14 20:00","2023","08","14","20:00","","13.5","","11.0","","85","","","","33","","6","","24.1","","98.14","","","","","","NA"
"-81.38","48.57","TIMMINS A","6078286","2023-08-14 21:00","2023","08","14","21:00","","12.0","","10.0","","88","","","","33","","3","","24.1","","98.14","","","","","","NA"
"-81.38","48.57","TIMMINS A","6078286","2023-08-14 22:00","2023","08","14","22:00","","10.2","","8.9","","91","","","","31","","7","","24.1","","98.16","","","","","","Mainly Clear"
"-81.38","48.57","TIMMINS A","6078286","2023-08-14 23:00","2023","08","14","23:00","","8.2","","7.4","","95","","","","","","0","","24.1","","98.13","","","","","","NA"
"-81.38","48.57","TIMMINS A","6078286","2023-08-15 00:00","2023","08","15","00:00","","7.9","","7.3","","96","","","","32","","3","","24.1","","98.11","","","","","","NA"
"-81.38","48.57","TIMMINS A","6078286","2023-08-15 01:00","2023","08","15","01:00","","7.4","","6.6","","95","","","","3","","7","","24.1","","98.12","","","","","","Clear"
"-81.38","48.57","TIMMINS A","6078286","2023-08-15 02:00","2023","08","15","02:00","","7.6","","7.0","","96","","","","6","","3","","24.1","","98.09","","","","","","NA"
"-81.38","48.57","TIMMINS A","6078286","2023-08-15 03:00","2023","08","15","03:00","","7.0","","6.5","","97","","","","36","","3","","24.1","","98.07","","","","","","NA"
"-81.38","48.57","TIMMINS A","6078286","2023-08-15 04:00","2023","08","15","04:00","","6.2","","6.0","","98","","","","33","","4","","24.1","","98.05","","","","","","Clear"
"-81.38","48.57","TIMMINS A","6078286","2023-08-15 05:00","2023","08","15","05:00","","4.9","","4.5","","97","","","","28","","4","","24.1","","98.03","","","","","","NA"
"-81.38","48.57","TIMMINS A","6078286","2023-08-15 06:00","2023","08","15","06:00","","5.5","","5.1","","97","","","","19","","3","","24.1","","98.05","","","","","","NA"
"-81.38","48.57","TIMMINS A","6078286","2023-08-15 07:00","2023","08","15","07:00","","10.9","","9.8","","92","","","","","","0","","24.1","","98.06","","","","","","Clear"
"-81.38","48.57","TIMMINS A","6078286","2023-08-15 08:00","2023","08","15","08:00","","15.3","","11.8","","79","","","","17","","6","","24.1","","98.09","","","","","","NA"
"-81.38","48.57","TIMMINS A","6078286","2023-08-15 09:00","2023","08","15","09:00","","17.3","","11.5","","69","","","","21","","8","","24.1","","98.07","","","","","","NA"
"-81.38","48.57","TIMMINS A","6078286","2023-08-15 10:00","2023","08","15","10:00","","19.9","","11.2","","57","","","","20","","12","","24.1","","98.03","","","","","","Mainly Clear"
"-81.38","48.57","TIMMINS A","6078286","2023-08-15 11:00","2023","08","15","11:00","","21.4","","9.1","","45","","","","12","","4","","24.1","","97.97","","","","","","NA"
"-81.38","48.57","TIMMINS A","6078286","2023-08-15 12:00","2023","08","15","12:00","","21.8","","10.4","","48","","","","18","","12","","24.1","","97.91","","","","","","NA"
"-81.38","48.57","TIMMINS A","6078286","2023-08-15 13:00","2023","08","15","13:00","","22.9","","10.1","","44","","","","16","","7","","24.1","","97.83","","","","","","Mainly Clear"
"-81.38","48.57","TIMMINS A","6078286","2023-08-15 14:00","2023","08","15","14:00","","23.6","","10.8","","44","","","","18","","15","","24.1","","97.76","","25","","","","NA"
"-81.38","48.57","TIMMINS A","6078286","2023-08-15 15:00","2023","08","15","15:00","","24.1","","10.3","","41","","","","18","","13","","24.1","","97.68","","26","","","","NA"
"-81.38","48.57","TIMMINS A","6078286","2023-08-15 16:00","2023","08","15","16:00","","24.4","","10.3","","40","","","","18","","17","","24.1","","97.64","","26","","","","Mainly Clear"
"-81.38","48.57","TIMMINS A","6078286","2023-08-15 17:00","2023","08","15","17:00","","24.2","","8.8","","37","","","","26","","11","","24.1","","97.61","","25","","","","NA"
"-81.38","48.57","TIMMINS A","6078286","2023-08-15 18:00","2023","08","15","18:00","","22.6","","9.3","","42","","","","20","","9","","24.1","","97.57","","","","","","NA"
"-81.38","48.57","TIMMINS A","6078286","2023-08-15 19:00","2023","08","15","19:00","","19.5","","11.3","","59","","","","22","","6","","24.1","","97.54","","","","","","Mostly Cloudy"
"-81.38","48.57","TIMMINS A","6078286","2023-08-15 20:00","2023","08","15","20:00","","16.2","","11.5","","73","","","","21","","8","","24.1","","97.54","","","","","","NA"
"-81.38","48.57","TIMMINS A","6078286","2023-08-15 21:00","2023","08","15","21:00","","15.9","","10.8","","71","","","","20","","8","","24.1","","97.56","","","","","","NA"
"-81.38","48.57","TIMMINS A","6078286","2023-08-15 22:00","2023","08","15","22:00","","16.9","","10.5","","66","","","","22","","9","","24.1","","97.58","","","","","","Mostly Cloudy"
"-81.38","48.57","TIMMINS A","6078286","2023-08-15 23:00","2023","08","15","23:00","","17.8","","10.3","","61","","","","28","","12","","24.1","","97.58","","","","","","NA"
"-81.38","48.57","TIMMINS A","6078286","2023-08-16 00:00","2023","08","16","00:00","","17.2","","10.7","","65","","","","24","","8","","24.1","","97.59","","","","","","NA"
"-81.38","48.57","TIMMINS A","6078286","2023-08-16 01:00","2023","08","16","01:00","","16.6","","11.4","","71","","","","29","","14","","24.1","","97.63","","","","","","Mostly Cloudy"
"-81.38","48.57","TIMMINS A","6078286","2023-08-16 02:00","2023","08","16","02:00","","13.9","","12.9","","94","","","","21","","7","","24.1","","97.62","","","","","","Rain"
"-81.38","48.57","TIMMINS A","6078286","2023-08-16 03:00","2023","08","16","03:00","","13.9","","13.2","","96","","","","23","","8","","24.1","","97.59","","","","","","Rain"
"-81.38","48.57","TIMMINS A","6078286","2023-08-16 04:00","2023","08","16","04:00","","13.6","","13.2","","97","","","","24","","6","","24.1","","97.62","","","","","","Mostly Cloudy"
"-81.38","48.57","TIMMINS A","6078286","2023-08-16 05:00","2023","08","16","05:00","","13.1","","12.7","","97","","","","22","","6","","24.1","","97.64","","","","","","NA"
"-81.38","48.57","TIMMINS A","6078286","2023-08-16 06:00","2023","08","16","06:00","","12.4","","12.1","","98","","","","20","","4","","24.1","","97.66","","","","","","NA"
"-81.38","48.57","TIMMINS A","6078286","2023-08-16 07:00","2023","08","16","07:00","","13.3","","12.7","","96","","","","22","","5","","24.1","","97.65","","","","","","Mostly Cloudy"
"-81.38","48.57","TIMMINS A","6078286","2023-08-16 08:00","2023","08","16","08:00","","15.5","","13.2","","86","","","","27","","7","","24.1","","97.67","","","","","","NA"
"-81.38","48.57","TIMMINS A","6078286","2023-08-16 09:00","2023","08","16","09:00","","17.5","","13.3","","76","","","","","","0","","24.1","","97.67","","","","","","NA"
"-81.38","48.57","TIMMINS A","6078286","2023-08-16 10:00","2023","08","16","10:00","","19.3","","12.8","","66","","","","19","","10","","24.1","","97.64","","","","","","Mainly Clear"
"-81.38","48.57","TIMMINS A","6078286","2023-08-16 11:00","2023","08","16","11:00","","20.7","","13.7","","64","","","","19","","12","","24.1","","97.58","","","","","","NA"
"-81.38","48.57","TIMMINS A","6078286","2023-08-16 12:00","2023","08","16","12:00","","21.8","","13.4","","58","","","","18","","8","","24.1","","97.51","","25","","","","NA"
"-81.38","48.57","TIMMINS A","6078286","2023-08-16 13:00","2023","08","16","13:00","","23.4","","13.6","","54","","","","21","","6","","24.1","","97.45","","27","","","","Mostly Cloudy"
"-81.38","48.57","TIMMINS A","6078286","2023-08-16 14:00","2023","08","16","14:00","","24.5","","14.6","","54","","","","19","","7","","24.1","","97.40","","28","","","","NA"
"-81.38","48.57","TIMMINS A","6078286","2023-08-16 15:00","2023","08","16","15:00","","24.3","","15.0","","55","","","","19","","19","","24.1","","97.32","","28","","","","NA"
"-81.38","48.57","TIMMINS A","6078286","2023-08-16 16:00","2023","08","16","16:00","","25.6","","14.4","","49","","","","22","","10","","24.1","","97.27","","29","","","","Mostly Cloudy"
"-81.38","48.57","TIMMINS A","6078286","2023-08-16 17:00","2023","08","16","17:00","","24.0","","14.2","","54","","","","21","","7","","24.1","","97.22","","27","","","","NA"
"-81.38","48.57","TIMMINS A","6078286","2023-08-16 18:00","2023","08","16","18:00","","23.2","","15.8","","63","","","","16","","10","","24.1","","97.17","","28","","","","NA"
"-81.38","48.57","TIMMINS A","6078286","2023-08-16 19:00","2023","08","16","19:00","","22.6","","16.1","","66","","","","15","","10","","24.1","","97.11","","27","","","","Cloudy"
"-81.38","48.57","TIMMINS A","6078286","2023-08-16 20:00","2023","08","16","20:00","","21.9","","16.4","","70","","","","17","","13","","24.1","","97.03","","27","","","","NA"
"-81.38","48.57","TIMMINS A","6078286","2023-08-16 21:00","2023","08","16","21:00","","20.5","","16.6","","78","","","","17","","15","","24.1","","96.99","","26","","","","NA"
"-81.38","48.57","TIMMINS A","6078286","2023-08-16 22:00","2023","08","16","22:00","","20.6","","17.1","","80","","","","18","","21","","24.1","","96.97","","26","","","","Cloudy"
"-81.38","48.57","TIMMINS A","6078286","2023-08-16 23:00","2023","08","16","23:00","","20.7","","16.9","","79","","","","18","","21","","24.1","","96.90","","26","","","","NA"
"-81.38","48.57","TIMMINS A","6078286","2023-08-17 00:00","2023","08","17","00:00","","20.3","","16.2","","77","","","","17","","23","","24.1","","96.82","","25","","","","NA"
"-81.38","48.57","TIMMINS A","6078286","2023-08-17 01:00","2023","08","17","01:00","","19.6","","15.9","","79","","","","19","","17","","24.1","","96.74","","","","","","Cloudy"
"-81.38","48.57","TIMMINS A","6078286","2023-08-17 02:00","2023","08","17","02:00","","19.6","","16.2","","80","","","","17","","22","","24.1","","96.67","","","","","","NA"
"-81.38","48.57","TIMMINS A","6078286","2023-08-17 03:00","2023","08","17","03:00","","19.7","","16.2","","80","","","","19","","22","","24.1","","96.62","","","","","","NA"
"-81.38","48.57","TIMMINS A","6078286","2023-08-17 04:00","2023","08","17","04:00","","19.5","","15.6","","78","","","","18","","24","","24.1","","96.54","","","","","","Cloudy"
"-81.38","48.57","TIMMINS A","6078286","2023-08-17 05:00","2023","08","17","05:00","","19.1","","15.0","","77","","","","19","","22","","24.1","","96.50","","","","","","NA"
"-81.38","48.57","TIMMINS A","6078286","2023-08-17 06:00","2023","08","17","06:00","","18.6","","14.6","","77","","","","18","","24","","24.1","","96.44","","","","","","NA"
"-81.38","48.57","TIMMINS A","6078286","2023-08-17 07:00","2023","08","17","07:00","","18.8","","14.5","","76","","","","18","","28","","24.1","","96.45","","","","","","Clear"
"-81.38","48.57","TIMMINS A","6078286","2023-08-17 08:00","2023","08","17","08:00","","18.8","","14.6","","76","","","","17","","27","","24.1","","96.34","","","","","","NA"
"-81.38","48.57","TIMMINS A","6078286","2023-08-17 09:00","2023","08","17","09:00","","19.4","","15.1","","76","","","","19","","23","","24.1","","96.37","","","","","","NA"
"-81.38","48.57","TIMMINS A","6078286","2023-08-17 10:00","2023","08","17","10:00","","20.5","","15.6","","73","","","","17","","27","","16.1","","96.36","","25","","","","Cloudy"
"-81.38","48.57","TIMMINS A","6078286","2023-08-17 11:00","2023","08","17","11:00","","20.7","","15.7","","73","","","","18","","21","","24.1","","96.36","","25","","","","Rain Showers"
"-81.38","48.57","TIMMINS A","6078286","2023-08-17 12:00","2023","08","17","12:00","","18.5","","16.7","","89","","","","16","","21","","4.0","","96.34","","","","","","Rain Showers,Fog"
"-81.38","48.57","TIMMINS A","6078286","2023-08-17 13:00","2023","08","17","13:00","","19.9","","17.8","","87","","","","16","","28","","11.3","","96.32","","","","","","Rain Showers"
"-81.38","48.57","TIMMINS A","6078286","2023-08-17 14:00","2023","08","17","14:00","","18.5","","16.9","","90","","","","15","","27","","16.1","","96.34","","","","","","Rain Showers"
"-81.38","48.57","TIMMINS A","6078286","2023-08-17 15:00","2023","08","17","15:00","","18.1","","15.9","","87","","","","19","","22","","24.1","","96.35","","","","","","Rain Showers"
"-81.38","48.57","TIMMINS A","6078286","2023-08-17 16:00","2023","08","17","16:00","","17.9","","15.7","","87","","","","17","","15","","24.1","","96.36","","","","","","Cloudy"
"-81.38","48.57","TIMMINS A","6078286","2023-08-17 17:00","2023","08","17","17:00","","17.7","","16.1","","91","","","","17","","13","","24.1","","96.37","","","","","","NA"
"-81.38","48.57","TIMMINS A","6078286","2023-08-17 18:00","2023","08","17","18:00","","17.2","","16.6","","96","","","","15","","8","","16.1","","96.41","","","","","","Rain Showers"
"-81.38","48.57","TIMMINS A","6078286","2023-08-17 19:00","2023","08","17","19:00","","16.5","","15.9","","96","","","","19","","8","","16.1","","96.42","","","","","","Rain Showers"
"-81.38","48.57","TIMMINS A","6078286","2023-08-17 20:00","2023","08","17","20:00","","16.1","","15.9","","98","","","","26","","4","","16.1","","96.43","","","","","","Rain Showers"
"-81.38","48.57","TIMMINS A","6078286","2023-08-17 21:00","2023","08","17","21:00","","15.4","","14.4","","94","","","","29","","9","","16.1","","96.48","","","","","","Rain Showers"
"-81.38","48.57","TIMMINS A","6078286","2023-08-17 22:00","2023","08","17","22:00","","14.8","","14.0","","95","","","","29","","8","","24.1","","96.54","","","","","","Rain Showers"
"-81.38","48.57","TIMMINS A","6078286","2023-08-17 23:00","2023","08","17","23:00","","14.9","","14.2","","96","","","","31","","12","","24.1","","96.59","","","","","","NA"
"-81.38","48.57","TIMMINS A","6078286","2023-08-18 00:00","2023","08","18","00:00","","13.7","","13.2","","97","","","","30","","19","","12.9","","96.61","","","","","","Rain"
"-81.38","48.57","TIMMINS A","6078286","2023-08-18 01:00","2023","08","18","01:00","","12.3","","11.8","","96","","","","31","","17","","24.1","","96.72","","","","","","Rain"
"-81.38","48.57","TIMMINS A","6078286","2023-08-18 02:00","2023","08","18","02:00","","11.7","","11.1","","96","","","","32","","17","","24.1","","96.76","","","","","","NA"
"-81.38","48.57","TIMMINS A","6078286","2023-08-18 03:00","2023","08","18","03:00","","11.4","","10.9","","96","","","","31","","12","","24.1","","96.79","","","","","","NA"
"-81.38","48.57","TIMMINS A","6078286","2023-08-18 04:00","2023","08","18","04:00","","11.3","","10.7","","96","","","","31","","20","","6.4","","96.86","","","","","","Drizzle"
"-81.38","48.57","TIMMINS A","6078286","2023-08-18 05:00","2023","08","18","05:00","","11.0","","10.5","","97","","","","32","","18","","9.7","","96.93","","","","","","Drizzle"
"-81.38","48.57","TIMMINS A","6078286","2023-08-18 06:00","2023","08","18","06:00","","10.8","","10.4","","97","","","","31","","15","","4.0","","97.05","","","","","","Drizzle,Fog"
"-81.38","48.57","TIMMINS A","6078286","2023-08-18 07:00","2023","08","18","07:00","","10.8","","10.3","","97","","","","32","","19","","4.0","","97.14","","","","","","Drizzle,Fog"
"-81.38","48.57","TIMMINS A","6078286","2023-08-18 08:00","2023","08","18","08:00","","10.9","","10.2","","96","","","","33","","23","","12.9","","97.16","","","","","","NA"
"-81.38","48.57","TIMMINS A","6078286","2023-08-18 09:00","2023","08","18","09:00","","11.0","","10.1","","94","","","","33","","28","","9.7","","97.23","","","","","","Rain,Fog"
"-81.38","48.57","TIMMINS A","6078286","2023-08-18 10:00","2023","08","18","10:00","","11.7","","9.7","","88","","","","33","","24","","12.9","","97.30","","","","","","Cloudy"
"-81.38","48.57","TIMMINS A","6078286","2023-08-18 11:00","2023","08","18","11:00","","13.5","","9.7","","78","","","","34","","27","","24.1","","97.38","","","","","","NA"
"-81.38","48.57","TIMMINS A","6078286","2023-08-18 12:00","2023","08","18","12:00","","15.0","","9.1","","68","","","","35","","25","","24.1","","97.46","","","","","","NA"
"-81.38","48.57","TIMMINS A","6078286","2023-08-18 13:00","2023","08","18","13:00","","16.8","","8.0","","56","","","","34","","28","","24.1","","97.45","","","","","","Mostly Cloudy"
"-81.38","48.57","TIMMINS A","6078286","2023-08-18 14:00","2023","08","18","14:00","","18.4","","7.2","","48","","","","33","","24","","24.1","","97.45","","","","","","NA"
"-81.38","48.57","TIMMINS A","6078286","2023-08-18 15:00","2023","08","18","15:00","","19.8","","7.4","","44","","","","33","","20","","24.1","","97.48","","","","","","NA"
"-81.38","48.57","TIMMINS A","6078286","2023-08-18 16:00","2023","08","18","16:00","","19.2","","6.1","","42","","","","31","","29","","24.1","","97.46","","","","","","Mainly Clear"
"-81.38","48.57","TIMMINS A","6078286","2023-08-18 17:00","2023","08","18","17:00","","19.3","","7.0","","44","","","","33","","21","","24.1","","97.49","","","","","","NA"
"-81.38","48.57","TIMMINS A","6078286","2023-08-18 18:00","2023","08","18","18:00","","18.6","","6.8","","45","","","","33","","19","","24.1","","97.52","","","","","","NA"
"-81.38","48.57","TIMMINS A","6078286","2023-08-18 19:00","2023","08","18","19:00","","16.5","","7.2","","54","","","","32","","10","","24.1","","97.57","","","","","","Mostly Cloudy"
"-81.38","48.57","TIMMINS A","6078286","2023-08-18 20:00","2023","08","18","20:00","","13.4","","7.4","","67","","","","30","","9","","24.1","","97.64","","","","","","NA"
"-81.38","48.57","TIMMINS A","6078286","2023-08-18 21:00","2023","08","18","21:00","","9.8","","7.3","","84","","","","30","","9","","24.1","","97.69","","","","","","NA"
"-81.38","48.57","TIMMINS A","6078286","2023-08-18 22:00","2023","08","18","22:00","","10.2","","7.1","","81","","","","29","","8","","24.1","","97.68","","","","","","Mainly Clear"
"-81.38","48.57","TIMMINS A","6078286","2023-08-18 23:00","2023","08","18","23:00","","6.7","","5.3","","91","","","","28","","8","","24.1","","97.69","","","","","","NA"
"-81.38","48.57","TIMMINS A","6078286","2023-08-19 00:00","2023","08","19","00:00","","5.9","","5.4","","97","","","","28","","5","","24.1","","97.72","","","","","","NA"
"-81.38","48.57","TIMMINS A","6078286","2023-08-19 01:00","2023","08","19","01:00","","5.6","","5.3","","98","","","","21","","4","","24.1","","97.76","","","","","","Clear"
"-81.38","48.57","TIMMINS A","6078286","2023-08-19 02:00","2023","08","19","02:00","","4.3","","3.8","","96","","","","36","","3","","24.1","","97.79","","","","","","NA"
"-81.38","48.57","TIMMINS A","6078286","2023-08-19 03:00","2023","08","19","03:00","","6.1","","5.8","","98","","","","28","","8","","24.1","","97.82","","","","","","NA"
"-81.38","48.57","TIMMINS A","6078286","2023-08-19 04:00","2023","08","19","04:00","","4.2","","3.9","","98","","","","17","","7","","24.1","","97.85","","","","","","Clear"
"-81.38","48.57","TIMMINS A","6078286","2023-08-19 05:00","2023","08","19","05:00","","4.4","","4.1","","98","","","","28","","5","","24.1","","97.89","","","","","","NA"
"-81.38","48.57","TIMMINS A","6078286","2023-08-19 06:00","2023","08","19","06:00","","4.9","","4.7","","98","","","","20","","3","","24.1","","97.89","","","","","","NA"
"-81.38","48.57","TIMMINS A","6078286","2023-08-19 07:00","2023","08","19","07:00","","8.7","","8.2","","96","","","","16","","5","","24.1","","97.89","","","","","","Clear"
"-81.38","48.57","TIMMINS A","6078286","2023-08-19 08:00","2023","08","19","08:00","","12.7","","10.5","","87","","","","19","","6","","24.1","","97.90","","","","","","NA"
"-81.38","48.57","TIMMINS A","6078286","2023-08-19 09:00","2023","08","19","09:00","","17.4","","9.8","","61","","","","27","","11","","24.1","","97.86","","","","","","NA"
"-81.38","48.57","TIMMINS A","6078286","2023-08-19 10:00","2023","08","19","10:00","","19.7","","10.1","","53","","","","23","","7","","19.3","","97.83","","","","","","Mostly Cloudy"
"-81.38","48.57","TIMMINS A","6078286","2023-08-19 11:00","2023","08","19","11:00","","21.9","","9.6","","45","","","","25","","10","","24.1","","97.80","","","","","","NA"
"-81.38","48.57","TIMMINS A","6078286","2023-08-19 12:00","2023","08","19","12:00","","23.7","","12.1","","47","","","","28","","9","","24.1","","97.73","","26","","","","NA"
"-81.38","48.57","TIMMINS A","6078286","2023-08-19 13:00","2023","08","19","13:00","","23.4","","11.5","","46","","","","24","","11","","24.1","","97.70","","25","","","","Mostly Cloudy"
"-81.38","48.57","TIMMINS A","6078286","2023-08-19 14:00","2023","08","19","14:00","","22.8","","11.5","","48","","","","22","","10","","24.1","","97.64","","25","","","","NA"
"-81.38","48.57","TIMMINS A","6078286","2023-08-19 15:00","2023","08","19","15:00","","22.9","","12.7","","52","","","","19","","10","","19.3","","97.60","","26","","","","NA"
"-81.38","48.57","TIMMINS A","6078286","2023-08-19 16:00","2023","08","19","16:00","","23.8","","13.5","","52","","","","21","","12","","24.1","","97.54","","27","","","","Mostly Cloudy"
"-81.38","48.57","TIMMINS A","6078286","2023-08-19 17:00","2023","08","19","17:00","","24.3","","13.2","","50","","","","22","","13","","24.1","","97.48","","27","","","","NA"
"-81.38","48.57","TIMMINS A","6078286","2023-08-19 18:00","2023","08","19","18:00","","23.8","","14.0","","54","","","","21","","11","","24.1","","97.48","","27","","","","NA"
"-81.38","48.57","TIMMINS A","6078286","2023-08-19 19:00","2023","08","19","19:00","","21.8","","14.6","","63","","","","24","","7","","24.1","","97.49","","26","","","","Mainly Clear"
"-81.38","48.57","TIMMINS A","6078286","2023-08-19 20:00","2023","08","19","20:00","","18.6","","14.8","","78","","","","20","","8","","24.1","","97.48","","","","","","NA"
"-81.38","48.57","TIMMINS A","6078286","2023-08-19 21:00","2023","08","19","21:00","","18.7","","15.0","","79","","","","20","","10","","24.1","","97.48","","","","","","NA"
"-81.38","48.57","TIMMINS A","6078286","2023-08-19 22:00","2023","08","19","22:00","","18.8","","15.4","","81","","","","20","","6","","24.1","","97.51","","","","","","Cloudy"
"-81.38","48.57","TIMMINS A","6078286","2023-08-19 23:00","2023","08","19","23:00","","19.9","","15.6","","76","","","","22","","9","","24.1","","97.53","","","","","","Rain Showers"
"-81.38","48.57","TIMMINS A","6078286","2023-08-20 00:00","2023","08","20","00:00","","19.5","","15.3","","76","","","","25","","9","","24.1","","97.55","","","","","","Rain Showers"
"-81.38","48.57","TIMMINS A","6078286","2023-08-20 01:00","2023","08","20","01:00","","19.0","","15.0","","78","","","","22","","7","","24.1","","97.54","","","","","","Rain Showers"
"-81.38","48.57","TIMMINS A","6078286","2023-08-20 02:00","2023","08","20","02:00","","17.4","","14.8","","84","","","","19","","8","","24.1","","97.53","","","","","","NA"
"-81.38","48.57","TIMMINS A","6078286","2023-08-20 03:00","2023","08","20","03:00","","16.6","","14.8","","89","","","","19","","7","","24.1","","97.53","","","","","","NA"
"-81.38","48.57","TIMMINS A","6078286","2023-08-20 04:00","2023","08","20","04:00","","15.7","","14.7","","94","","","","18","","5","","24.1","","97.57","","","","","","Cloudy"
"-81.38","48.57","TIMMINS A","6078286","2023-08-20 05:00","2023","08","20","05:00","","16.0","","14.7","","92","","","","20","","7","","24.1","","97.59","","","","","","NA"
"-81.38","48.57","TIMMINS A","6078286","2023-08-20 06:00","2023","08","20","06:00","","16.9","","14.8","","87","","","","25","","5","","24.1","","97.63","","","","","","NA"
"-81.38","48.57","TIMMINS A","6078286","2023-08-20 07:00","2023","08","20","07:00","","18.7","","15.5","","82","","","","26","","9","","24.1","","97.66","","","","","","Mostly Cloudy"
"-81.38","48.57","TIMMINS A","6078286","2023-08-20 08:00","2023","08","20","08:00","","20.1","","16.1","","77","","","","30","","13","","24.1","","97.70","","25","","","","NA"
"-81.38","48.57","TIMMINS A","6078286","2023-08-20 09:00","2023","08","20","09:00","","21.4","","16.9","","75","","","","29","","13","","24.1","","97.78","","27","","","","NA"
"-81.38","48.57","TIMMINS A","6078286","2023-08-20 10:00","2023","08","20","10:00","","21.2","","16.9","","76","","","","32","","14","","24.1","","97.89","","26","","","","Cloudy"
"-81.38","48.57","TIMMINS A","6078286","2023-08-20 11:00","2023","08","20","11:00","","19.9","","16.9","","82","","","","33","","19","","24.1","","97.96","","","","","","NA"
"-81.38","48.57","TIMMINS A","6078286","2023-08-20 12:00","2023","08","20","12:00","","18.2","","17.1","","93","","","","34","","12","","4.0","","98.03","","","","","","Drizzle,Fog"
"-81.38","48.57","TIMMINS A","6078286","2023-08-20 13:00","2023","08","20","13:00","","17.2","","16.4","","95","","","","32","","13","","24.1","","98.13","","","","","","Cloudy"
"-81.38","48.57","TIMMINS A","6078286","2023-08-20 14:00","2023","08","20","14:00","","18.0","","15.4","","84","","","","32","","18","","24.1","","98.18","","","","","","NA"
"-81.38","48.57","TIMMINS A","6078286","2023-08-20 15:00","2023","08","20","15:00","","17.7","","14.1","","79","","","","34","","18","","24.1","","98.26","","","","","","NA"
"-81.38","48.57","TIMMINS A","6078286","2023-08-20 16:00","2023","08","20","16:00","","18.1","","12.8","","71","","","","33","","24","","24.1","","98.35","","","","","","Mostly Cloudy"
"-81.38","48.57","TIMMINS A","6078286","2023-08-20 17:00","2023","08","20","17:00","","18.1","","12.3","","69","","","","33","","14","","24.1","","98.43","","","","","","NA"
"-81.38","48.57","TIMMINS A","6078286","2023-08-20 18:00","2023","08","20","18:00","","17.7","","12.0","","69","","","","34","","8","","24.1","","98.45","","","","","","NA"
"-81.38","48.57","TIMMINS A","6078286","2023-08-20 19:00","2023","08","20","19:00","","16.9","","11.1","","68","","","","35","","11","","24.1","","98.54","","","","","","Mostly Cloudy"
"-81.38","48.57","TIMMINS A","6078286","2023-08-20 20:00","2023","08","20","20:00","","14.5","","10.7","","78","","","","33","","9","","24.1","","98.64","","","","","","NA"
"-81.38","48.57","TIMMINS A","6078286","2023-08-20 21:00","2023","08","20","21:00","","11.7","","10.1","","90","","","","30","","8","","24.1","","98.70","","","","","","NA"
"-81.38","48.57","TIMMINS A","6078286","2023-08-20 22:00","2023","08","20","22:00","","10.5","","9.7","","95","","","","30","","8","","24.1","","98.72","","","","","","Mainly Clear"
"-81.38","48.57","TIMMINS A","6078286","2023-08-20 23:00","2023","08","20","23:00","","10.7","","9.4","","91","","","","30","","8","","24.1","","98.75","","","","","","NA"
"-81.38","48.57","TIMMINS A","6078286","2023-08-21 00:00","2023","08","21","00:00","","8.0","","7.5","","96","","","","24","","3","","24.1","","98.80","","","","","","NA"
"-81.38","48.57","TIMMINS A","6078286","2023-08-21 01:00","2023","08","21","01:00","","7.2","","6.8","","97","","","","28","","7","","24.1","","98.82","","","","","","Clear"
"-81.38","48.57","TIMMINS A","6078286","2023-08-21 02:00","2023","08","21","02:00","","7.4","","6.8","","96","","","","27","","5","","24.1","","98.82","","","","","","NA"
"-81.38","48.57","TIMMINS A","6078286","2023-08-21 03:00","2023","08","21","03:00","","6.3","","6.0","","98","","","","17","","3","","24.1","","98.84","","","","","","NA"
"-81.38","48.57","TIMMINS A","6078286","2023-08-21 04:00","2023","08","21","04:00","","5.2","","4.8","","98","","","","","","0","","24.1","","98.86","","","","","","Clear"
"-81.38","48.57","TIMMINS A","6078286","2023-08-21 05:00","2023","08","21","05:00","","6.3","","6.0","","98","","","","18","","5","","24.1","","98.91","","","","","","NA"
"-81.38","48.57","TIMMINS A","6078286","2023-08-21 06:00","2023","08","21","06:00","","6.5","","6.1","","98","","","","","","0","","24.1","","98.97","","","","","","NA"
"-81.38","48.57","TIMMINS A","6078286","2023-08-21 07:00","2023","08","21","07:00","","9.4","","9.1","","98","","","","23","","4","","24.1","","98.99","","","","","","Mostly Cloudy"
"-81.38","48.57","TIMMINS A","6078286","2023-08-21 08:00","2023","08","21","08:00","","13.0","","10.5","","85","","","","25","","5","","24.1","","99.02","","","","","","NA"
"-81.38","48.57","TIMMINS A","6078286","2023-08-21 09:00","2023","08","21","09:00","","15.7","","10.6","","71","","","","27","","10","","24.1","","99.01","","","","","","NA"
"-81.38","48.57","TIMMINS A","6078286","2023-08-21 10:00","2023","08","21","10:00","","17.7","","11.1","","65","","","","27","","8","","24.1","","99.01","","","","","","Cloudy"
"-81.38","48.57","TIMMINS A","6078286","2023-08-21 11:00","2023","08","21","11:00","","19.0","","10.1","","56","","","","29","","9","","24.1","","98.99","","","","","","NA"
"-81.38","48.57","TIMMINS A","6078286","2023-08-21 12:00","2023","08","21","12:00","","20.4","","10.6","","53","","","","27","","14","","24.1","","98.98","","","","","","NA"
"-81.38","48.57","TIMMINS A","6078286","2023-08-21 13:00","2023","08","21","13:00","","21.2","","9.6","","47","","","","30","","12","","24.1","","98.93","","","","","","Mostly Cloudy"
"-81.38","48.57","TIMMINS A","6078286","2023-08-21 14:00","2023","08","21","14:00","","21.6","","8.4","","42","","","","32","","17","","24.1","","98.90","","","","","","NA"
"-81.38","48.57","TIMMINS A","6078286","2023-08-21 15:00","2023","08","21","15:00","","21.9","","8.7","","42","","","","31","","14","","24.1","","98.85","","","","","","NA"
"-81.38","48.57","TIMMINS A","6078286","2023-08-21 16:00","2023","08","21","16:00","","22.1","","8.5","","41","","","","27","","15","","24.1","","98.83","","","","","","Mostly Cloudy"
"-81.38","48.57","TIMMINS A","6078286","2023-08-21 17:00","2023","08","21","17:00","","22.1","","8.4","","41","","","","32","","19","","24.1","","98.82","","","","","","NA"
"-81.38","48.57","TIMMINS A","6078286","2023-08-21 18:00","2023","08","21","18:00","","21.5","","8.9","","44","","","","32","","10","","24.1","","98.83","","","","","","NA"
"-81.38","48.57","TIMMINS A","6078286","2023-08-21 19:00","2023","08","21","19:00","","17.9","","11.8","","67","","","","30","","5","","24.1","","98.82","","","","","","Mostly Cloudy"
"-81.38","48.57","TIMMINS A","6078286","2023-08-21 20:00","2023","08","21","20:00","","12.2","","10.6","","90","","","","27","","6","","24.1","","98.85","","","","","","NA"
"-81.38","48.57","TIMMINS A","6078286","2023-08-21 21:00","2023","08","21","21:00","","10.7","","9.3","","91","","","","25","","6","","24.1","","98.86","","","","","","NA"
"-81.38","48.57","TIMMINS A","6078286","2023-08-21 22:00","2023","08","21","22:00","","10.2","","9.3","","94","","","","","","0","","24.1","","98.88","","","","","","Mainly Clear"
"-81.38","48.57","TIMMINS A","6078286","2023-08-21 23:00","2023","08","21","23:00","","9.7","","9.0","","95","","","","19","","4","","24.1","","98.90","","","","","","NA"
"-81.38","48.57","TIMMINS A","6078286","2023-08-22 00:00","2023","08","22","00:00","","9.0","","8.5","","97","","","","25","","5","","24.1","","98.88","","","","","","NA"
"-81.38","48.57","TIMMINS A","6078286","2023-08-22 01:00","2023","08","22","01:00","","9.1","","8.5","","96","","","","14","","3","","24.1","","98.90","","","","","","Clear"
"-81.38","48.57","TIMMINS A","6078286","2023-08-22 02:00","2023","08","22","02:00","","8.4","","7.9","","96","","","","21","","7","","24.1","","98.90","","","","","","NA"
"-81.38","48.57","TIMMINS A","6078286","2023-08-22 03:00","2023","08","22","03:00","","8.1","","7.4","","95","","","","24","","3","","24.1","","98.92","","","","","","NA"
"-81.38","48.57","TIMMINS A","6078286","2023-08-22 04:00","2023","08","22","04:00","","8.2","","7.9","","98","","","","23","","3","","24.1","","98.96","","","","","","Clear"
"-81.38","48.57","TIMMINS A","6078286","2023-08-22 05:00","2023","08","22","05:00","","6.8","","6.3","","96","","","","","","0","","24.1","","98.97","","","","","","NA"
"-81.38","48.57","TIMMINS A","6078286","2023-08-22 06:00","2023","08","22","06:00","","8.0","","7.7","","98","","","","19","","6","","24.1","","98.98","","","","","","NA"
"-81.38","48.57","TIMMINS A","6078286","2023-08-22 07:00","2023","08","22","07:00","","10.1","","9.7","","98","","","","","","0","","24.1","","99.00","","","","","","Mostly Cloudy"
"-81.38","48.57","TIMMINS A","6078286","2023-08-22 08:00","2023","08","22","08:00","","15.5","","12.1","","80","","","","28","","4","","24.1","","99.02","","","","","","NA"
"-81.38","48.57","TIMMINS A","6078286","2023-08-22 09:00","2023","08","22","09:00","","17.7","","11.8","","68","","","","27","","5","","24.1","","99.00","","","","","","NA"
"-81.38","48.57","TIMMINS A","6078286","2023-08-22 10:00","2023","08","22","10:00","","20.0","","12.9","","63","","","","16","","5","","24.1","","99.00","","","","","","Mainly Clear"
"-81.38","48.57","TIMMINS A","6078286","2023-08-22 11:00","2023","08","22","11:00","","21.7","","12.9","","57","","","","20","","9","","24.1","","98.95","","","","","","NA"
"-81.38","48.57","TIMMINS A","6078286","2023-08-22 12:00","2023","08","22","12:00","","22.8","","10.9","","47","","","","26","","10","","24.1","","98.90","","25","","","","NA"
"-81.38","48.57","TIMMINS A","6078286","2023-08-22 13:00","2023","08","22","13:00","","24.3","","11.1","","43","","","","25","","12","","24.1","","98.83","","26","","","","Mostly Cloudy"
"-81.38","48.57","TIMMINS A","6078286","2023-08-22 14:00","2023","08","22","14:00","","23.9","","10.1","","41","","","","28","","7","","24.1","","98.77","","25","","","","NA"
"-81.38","48.57","TIMMINS A","6078286","2023-08-22 15:00","2023","08","22","15:00","","23.0","","10.4","","44","","","","26","","9","","24.1","","98.72","","","","","","NA"
"-81.38","48.57","TIMMINS A","6078286","2023-08-22 16:00","2023","08","22","16:00","","22.7","","10.7","","46","","","","28","","13","","24.1","","98.68","","","","","","Mostly Cloudy"
"-81.38","48.57","TIMMINS A","6078286","2023-08-22 17:00","2023","08","22","17:00","","21.6","","11.3","","51","","","","26","","6","","24.1","","98.67","","","","","","NA"
"-81.38","48.57","TIMMINS A","6078286","2023-08-22 18:00","2023","08","22","18:00","","20.6","","12.2","","58","","","","26","","5","","24.1","","98.65","","","","","","NA"
"-81.38","48.57","TIMMINS A","6078286","2023-08-22 19:00","2023","08","22","19:00","","18.6","","12.6","","68","","","","26","","5","","24.1","","98.61","","","","","","Cloudy"
"-81.38","48.57","TIMMINS A","6078286","2023-08-22 20:00","2023","08","22","20:00","","16.3","","13.4","","83","","","","23","","3","","24.1","","98.62","","","","","","NA"
"-81.38","48.57","TIMMINS A","6078286","2023-08-22 21:00","2023","08","22","21:00","","15.5","","12.8","","84","","","","26","","4","","24.1","","98.66","","","","","","NA"
"-81.38","48.57","TIMMINS A","6078286","2023-08-22 22:00","2023","08","22","22:00","","16.5","","12.5","","77","","","","27","","6","","24.1","","98.66","","","","","","Cloudy"
"-81.38","48.57","TIMMINS A","6078286","2023-08-22 23:00","2023","08","22","23:00","","16.0","","12.6","","80","","","","28","","6","","24.1","","98.63","","","","","","NA"
"-81.38","48.57","TIMMINS A","6078286","2023-08-23 00:00","2023","08","23","00:00","","13.5","","12.4","","93","","","","25","","3","","24.1","","98.59","","","","","","NA"
"-81.38","48.57","TIMMINS A","6078286","2023-08-23 01:00","2023","08","23","01:00","","12.2","","11.7","","97","","","","","","0","","24.1","","98.57","","","","","","Mostly Cloudy"
"-81.38","48.57","TIMMINS A","6078286","2023-08-23 02:00","2023","08","23","02:00","","11.8","","11.3","","97","","","","18","","3","","24.1","","98.54","","","","","","NA"
"-81.38","48.57","TIMMINS A","6078286","2023-08-23 03:00","2023","08","23","03:00","","12.8","","11.8","","94","","","","27","","7","","24.1","","98.57","","","","","","NA"
"-81.38","48.57","TIMMINS A","6078286","2023-08-23 04:00","2023","08","23","04:00","","14.3","","12.1","","87","","","","28","","8","","24.1","","98.57","","","","","","Mostly Cloudy"
"-81.38","48.57","TIMMINS A","6078286","2023-08-23 05:00","2023","08","23","05:00","","13.6","","11.2","","86","","","","26","","8","","24.1","","98.57","","","","","","NA"
"-81.38","48.57","TIMMINS A","6078286","2023-08-23 06:00","2023","08","23","06:00","","12.3","","10.8","","90","","","","27","","5","","24.1","","98.60","","","","","","NA"
"-81.38","48.57","TIMMINS A","6078286","2023-08-23 07:00","2023","08","23","07:00","","14.2","","11.5","","83","","","","22","","7","","24.1","","98.60","","","","","","Mostly Cloudy"
"-81.38","48.57","TIMMINS A","6078286","2023-08-23 08:00","2023","08","23","08:00","","16.8","","11.5","","71","","","","33","","7","","24.1","","98.56","","","","","","NA"
"-81.38","48.57","TIMMINS A","6078286","2023-08-23 09:00","2023","08","23","09:00","","18.4","","11.2","","63","","","","29","","8","","24.1","","98.50","","","","","","NA"
"-81.38","48.57","TIMMINS A","6078286","2023-08-23 10:00","2023","08","23","10:00","","19.0","","11.9","","63","","","","","","0","","24.1","","98.47","","","","","","Mainly Clear"
"-81.38","48.57","TIMMINS A","6078286","2023-08-23 11:00","2023","08","23","11:00","","21.0","","13.1","","60","","","","16","","6","","24.1","","98.41","","","","","","NA"
"-81.38","48.57","TIMMINS A","6078286","2023-08-23 12:00","2023","08","23","12:00","","22.9","","12.8","","53","","","","16","","8","","24.1","","98.34","","26","","","","NA"
"-81.38","48.57","TIMMINS A","6078286","2023-08-23 13:00","2023","08","23","13:00","","23.2","","10.5","","44","","","","11","","8","","24.1","","98.27","","25","","","","Mostly Cloudy"
"-81.38","48.57","TIMMINS A","6078286","2023-08-23 14:00","2023","08","23","14:00","","24.0","","11.8","","46","","","","16","","6","","24.1","","98.17","","26","","","","NA"
"-81.38","48.57","TIMMINS A","6078286","2023-08-23 15:00","2023","08","23","15:00","","22.7","","11.9","","50","","","","18","","10","","24.1","","98.15","","25","","","","NA"
"-81.38","48.57","TIMMINS A","6078286","2023-08-23 16:00","2023","08","23","16:00","","22.7","","12.3","","51","","","","19","","11","","24.1","","98.13","","25","","","","Mostly Cloudy"
"-81.38","48.57","TIMMINS A","6078286","2023-08-23 17:00","2023","08","23","17:00","","22.0","","12.0","","52","","","","20","","11","","24.1","","98.11","","","","","","NA"
"-81.38","48.57","TIMMINS A","6078286","2023-08-23 18:00","2023","08","23","18:00","","20.8","","11.8","","56","","","","18","","8","","24.1","","98.06","","","","","","NA"
"-81.38","48.57","TIMMINS A","6078286","2023-08-23 19:00","2023","08","23","19:00","","16.1","","12.8","","81","","","","","","0","","24.1","","98.01","","","","","","Mostly Cloudy"
"-81.38","48.57","TIMMINS A","6078286","2023-08-23 20:00","2023","08","23","20:00","","14.0","","11.9","","87","","","","5","","4","","24.1","","98.07","","","","","","NA"
"-81.38","48.57","TIMMINS A","6078286","2023-08-23 21:00","2023","08","23","21:00","","12.7","","11.0","","89","","","","","","0","","24.1","","98.08","","","","","","NA"
"-81.38","48.57","TIMMINS A","6078286","2023-08-23 22:00","2023","08","23","22:00","","12.5","","11.2","","92","","","","10","","4","","24.1","","98.05","","","","","","Mostly Cloudy"
"-81.38","48.57","TIMMINS A","6078286","2023-08-23 23:00","2023","08","23","23:00","","10.7","","9.6","","93","","","","5","","4","","24.1","","98.05","","","","","","NA"
"-81.38","48.57","TIMMINS A","6078286","2023-08-24 00:00","2023","08","24","00:00","","13.0","","11.2","","89","","","","13","","3","","24.1","","98.02","","","","","","NA"
"-81.38","48.57","TIMMINS A","6078286","2023-08-24 01:00","2023","08","24","01:00","","14.0","","12.1","","88","","","","9","","3","","24.1","","97.97","","","","","","Mostly Cloudy"
"-81.38","48.57","TIMMINS A","6078286","2023-08-24 02:00","2023","08","24","02:00","","14.1","","12.8","","91","","","","14","","3","","24.1","","97.93","","","","","","NA"
"-81.38","48.57","TIMMINS A","6078286","2023-08-24 03:00","2023","08","24","03:00","","14.5","","12.5","","88","","","","36","","3","","24.1","","97.88","","","","","","NA"
"-81.38","48.57","TIMMINS A","6078286","2023-08-24 04:00","2023","08","24","04:00","","14.2","","12.4","","89","","","","9","","4","","24.1","","97.84","","","","","","Mostly Cloudy"
"-81.38","48.57","TIMMINS A","6078286","2023-08-24 05:00","2023","08","24","05:00","","13.6","","12.1","","90","","","","7","","4","","24.1","","97.81","","","","","","NA"
"-81.38","48.57","TIMMINS A","6078286","2023-08-24 06:00","2023","08","24","06:00","","13.8","","12.1","","89","","","","8","","4","","24.1","","97.83","","","","","","NA"
"-81.38","48.57","TIMMINS A","6078286","2023-08-24 07:00","2023","08","24","07:00","","14.9","","12.9","","88","","","","","","0","","24.1","","97.92","","","","","","Cloudy"
"-81.38","48.57","TIMMINS A","6078286","2023-08-24 08:00","2023","08","24","08:00","","15.6","","13.4","","87","","","","17","","9","","24.1","","97.88","","","","","","NA"
"-81.38","48.57","TIMMINS A","6078286","2023-08-24 09:00","2023","08","24","09:00","","18.2","","13.2","","72","","","","17","","10","","24.1","","97.81","","","","","","NA"
"-81.38","48.57","TIMMINS A","6078286","2023-08-24 10:00","2023","08","24","10:00","","18.5","","13.3","","72","","","","18","","11","","24.1","","97.77","","","","","","Cloudy"
"-81.38","48.57","TIMMINS A","6078286","2023-08-24 11:00","2023","08","24","11:00","","18.3","","13.8","","74","","","","18","","9","","24.1","","97.77","","","","","","NA"
"-81.38","48.57","TIMMINS A","6078286","2023-08-24 12:00","2023","08","24","12:00","","17.8","","14.2","","79","","","","18","","7","","24.1","","97.76","","","","","","Rain"
"-81.38","48.57","TIMMINS A","6078286","2023-08-24 13:00","2023","08","24","13:00","","17.3","","15.7","","90","","","","16","","11","","9.7","","97.72","","","","","","Rain,Fog"
"-81.38","48.57","TIMMINS A","6078286","2023-08-24 14:00","2023","08","24","14:00","","18.0","","16.0","","88","","","","14","","13","","24.1","","97.67","","","","","","NA"
"-81.38","48.57","TIMMINS A","6078286","2023-08-24 15:00","2023","08","24","15:00","","17.9","","15.0","","83","","","","13","","10","","24.1","","97.66","","","","","","NA"
"-81.38","48.57","TIMMINS A","6078286","2023-08-24 16:00","2023","08","24","16:00","","17.8","","14.6","","82","","","","16","","14","","24.1","","97.66","","","","","","Cloudy"
"-81.38","48.57","TIMMINS A","6078286","2023-08-24 17:00","2023","08","24","17:00","","17.6","","14.9","","84","","","","13","","6","","24.1","","97.66","","","","","","NA"
"-81.38","48.57","TIMMINS A","6078286","2023-08-24 18:00","2023","08","24","18:00","","17.3","","15.2","","87","","","","18","","11","","24.1","","97.67","","","","","","NA"
"-81.38","48.57","TIMMINS A","6078286","2023-08-24 19:00","2023","08","24","19:00","","16.7","","15.2","","91","","","","19","","6","","24.1","","97.67","","","","","","Cloudy"
"-81.38","48.57","TIMMINS A","6078286","2023-08-24 20:00","2023","08","24","20:00","","16.1","","15.3","","95","","","","18","","3","","24.1","","97.67","","","","","","NA"
"-81.38","48.57","TIMMINS A","6078286","2023-08-24 21:00","2023","08","24","21:00","","15.8","","15.3","","97","","","","18","","4","","24.1","","97.66","","","","","","NA"
"-81.38","48.57","TIMMINS A","6078286","2023-08-24 22:00","2023","08","24","22:00","","15.6","","15.3","","98","","","","","","0","","24.1","","97.63","","","","","","Mostly Cloudy"
"-81.38","48.57","TIMMINS A","6078286","2023-08-24 23:00","2023","08","24","23:00","","15.3","","15.0","","98","","","","19","","3","","24.1","","97.59","","","","","","NA"
"-81.38","48.57","TIMMINS A","6078286","2023-08-25 00:00","2023","08","25","00:00","","15.3","","15.1","","98","","","","25","","3","","24.1","","97.61","","","","","","NA"
"-81.38","48.57","TIMMINS A","6078286","2023-08-25 01:00","2023","08","25","01:00","","15.6","","15.2","","98","","","","","","0","","24.1","","97.62","","","","","","Mostly Cloudy"
"-81.38","48.57","TIMMINS A","6078286","2023-08-25 02:00","2023","08","25","02:00","","15.3","","15.0","","98","","","","","","0","","24.1","","97.62","","","","","","NA"
"-81.38","48.57","TIMMINS A","6078286","2023-08-25 03:00","2023","08","25","03:00","","14.9","","14.6","","98","","","","","","0","","24.1","","97.64","","","","","","NA"
"-81.38","48.57","TIMMINS A","6078286","2023-08-25 04:00","2023","08","25","04:00","","15.5","","15.1","","98","","","","27","","3","","24.1","","97.66","","","","","","Mostly Cloudy"
"-81.38","48.57","TIMMINS A","6078286","2023-08-25 05:00","2023","08","25","05:00","","15.4","","15.1","","98","","","","27","","3","","9.7","","97.61","","","","","","Drizzle"
"-81.38","48.57","TIMMINS A","6078286","2023-08-25 06:00","2023","08","25","06:00","","15.6","","15.4","","98","","","","","","0","","9.7","","97.61","","","","","","Drizzle,Fog"
"-81.38","48.57","TIMMINS A","6078286","2023-08-25 07:00","2023","08","25","07:00","","16.1","","15.9","","98","","","","26","","6","","9.7","","97.65","","","","","","Fog"
"-81.38","48.57","TIMMINS A","6078286","2023-08-25 08:00","2023","08","25","08:00","","16.6","","16.2","","98","","","","29","","7","","9.7","","97.63","","","","","","Fog"
"-81.38","48.57","TIMMINS A","6078286","2023-08-25 09:00","2023","08","25","09:00","","17.3","","17.0","","98","","","","28","","7","","4.8","","97.64","","","","","","Drizzle,Fog"
"-81.38","48.57","TIMMINS A","6078286","2023-08-25 10:00","2023","08","25","10:00","","18.2","","16.8","","91","","","","31","","10","","24.1","","97.65","","","","","","Drizzle"
"-81.38","48.57","TIMMINS A","6078286","2023-08-25 11:00","2023","08","25","11:00","","18.6","","16.6","","88","","","","30","","12","","9.7","","97.66","","","","","","Rain"
"-81.38","48.57","TIMMINS A","6078286","2023-08-25 12:00","2023","08","25","12:00","","19.4","","15.7","","79","","","","28","","17","","24.1","","97.65","","","","","","NA"
"-81.38","48.57","TIMMINS A","6078286","2023-08-25 13:00","2023","08","25","13:00","","17.7","","16.4","","92","","","","33","","22","","14.5","","97.67","","","","","","Rain Showers"
"-81.38","48.57","TIMMINS A","6078286","2023-08-25 14:00","2023","08","25","14:00","","18.6","","15.7","","83","","","","35","","17","","24.1","","97.66","","","","","","NA"
"-81.38","48.57","TIMMINS A","6078286","2023-08-25 15:00","2023","08","25","15:00","","17.7","","14.9","","83","","","","35","","10","","24.1","","97.71","","","","","","NA"
"-81.38","48.57","TIMMINS A","6078286","2023-08-25 16:00","2023","08","25","16:00","","16.9","","14.1","","83","","","","36","","18","","24.1","","97.73","","","","","","Cloudy"
"-81.38","48.57","TIMMINS A","6078286","2023-08-25 17:00","2023","08","25","17:00","","16.2","","13.7","","85","","","","1","","16","","24.1","","97.77","","","","","","NA"
"-81.38","48.57","TIMMINS A","6078286","2023-08-25 18:00","2023","08","25","18:00","","14.7","","12.8","","89","","","","1","","19","","24.1","","97.87","","","","","","NA"
"-81.38","48.57","TIMMINS A","6078286","2023-08-25 19:00","2023","08","25","19:00","","13.7","","12.1","","90","","","","35","","19","","24.1","","97.91","","","","","","Cloudy"
"-81.38","48.57","TIMMINS A","6078286","2023-08-25 20:00","2023","08","25","20:00","","12.8","","11.4","","91","","","","1","","16","","24.1","","97.99","","","","","","NA"
"-81.38","48.57","TIMMINS A","6078286","2023-08-25 21:00","2023","08","25","21:00","","11.9","","10.8","","93","","","","34","","18","","24.1","","98.08","","","","","","NA"
"-81.38","48.57","TIMMINS A","6078286","2023-08-25 22:00","2023","08","25","22:00","","10.8","","8.3","","84","","","","1","","16","","24.1","","98.17","","","","","","Cloudy"
"-81.38","48.57","TIMMINS A","6078286","2023-08-25 23:00","2023","08","25","23:00","","9.9","","7.9","","87","","","","36","","10","","24.1","","98.21","","","","","","NA"
"-81.38","48.57","TIMMINS A","6078286","2023-08-26 00:00","2023","08","26","00:00","","8.6","","7.0","","90","","","","35","","12","","24.1","","98.27","","","","","","NA"
"-81.38","48.57","TIMMINS A","6078286","2023-08-26 01:00","2023","08","26","01:00","","8.2","","6.1","","87","","","","36","","14","","24.1","","98.30","","","","","","Cloudy"
"-81.38","48.57","TIMMINS A","6078286","2023-08-26 02:00","2023","08","26","02:00","","7.8","","5.5","","86","","","","2","","14","","24.1","","98.33","","","","","","NA"
"-81.38","48.57","TIMMINS A","6078286","2023-08-26 03:00","2023","08","26","03:00","","7.3","","5.3","","87","","","","2","","17","","24.1","","98.39","","","","","","NA"
"-81.38","48.57","TIMMINS A","6078286","2023-08-26 04:00","2023","08","26","04:00","","7.2","","5.4","","88","","","","1","","8","","24.1","","98.43","","","","","","Cloudy"
"-81.38","48.57","TIMMINS A","6078286","2023-08-26 05:00","2023","08","26","05:00","","7.2","","5.5","","89","","","","1","","11","","24.1","","98.49","","","","","","NA"
"-81.38","48.57","TIMMINS A","6078286","2023-08-26 06:00","2023","08","26","06:00","","7.2","","5.6","","90","","","","36","","10","","24.1","","98.59","","","","","","NA"
"-81.38","48.57","TIMMINS A","6078286","2023-08-26 07:00","2023","08","26","07:00","","7.0","","6.2","","94","","","","36","","9","","9.7","","98.69","","","","","","Fog"
"-81.38","48.57","TIMMINS A","6078286","2023-08-26 08:00","2023","08","26","08:00","","7.3","","5.2","","87","","","","36","","14","","24.1","","98.75","","","","","","NA"
"-81.38","48.57","TIMMINS A","6078286","2023-08-26 09:00","2023","08","26","09:00","","7.9","","5.4","","84","","","","35","","15","","24.1","","98.81","","","","","","NA"
"-81.38","48.57","TIMMINS A","6078286","2023-08-26 10:00","2023","08","26","10:00","","10.2","","6.4","","77","","","","34","","12","","24.1","","98.84","","","","","","Mostly Cloudy"
"-81.38","48.57","TIMMINS A","6078286","2023-08-26 11:00","2023","08","26","11:00","","12.0","","6.0","","66","","","","4","","18","","24.1","","98.83","","","","","","NA"
"-81.38","48.57","TIMMINS A","6078286","2023-08-26 12:00","2023","08","26","12:00","","13.7","","5.5","","57","","","","34","","17","","24.1","","98.78","","","","","","NA"
"-81.38","48.57","TIMMINS A","6078286","2023-08-26 13:00","2023","08","26","13:00","","15.2","","5.7","","53","","","","33","","10","","24.1","","98.75","","","","","","Clear"
"-81.38","48.57","TIMMINS A","6078286","2023-08-26 14:00","2023","08","26","14:00","","16.3","","5.1","","47","","","","1","","12","","24.1","","98.70","","","","","","NA"
"-81.38","48.57","TIMMINS A","6078286","2023-08-26 15:00","2023","08","26","15:00","","17.5","","3.7","","40","","","","1","","14","","24.1","","98.65","","","","","","NA"
"-81.38","48.57","TIMMINS A","6078286","2023-08-26 16:00","2023","08","26","16:00","","17.9","","3.6","","38","","","","4","","17","","24.1","","98.63","","","","","","Clear"
"-81.38","48.57","TIMMINS A","6078286","2023-08-26 17:00","2023","08","26","17:00","","17.7","","4.2","","41","","","","3","","14","","24.1","","98.64","","","","","","NA"
"-81.38","48.57","TIMMINS A","6078286","2023-08-26 18:00","2023","08","26","18:00","","16.9","","4.3","","43","","","","1","","10","","24.1","","98.64","","","","","","NA"
"-81.38","48.57","TIMMINS A","6078286","2023-08-26 19:00","2023","08","26","19:00","","14.6","","5.2","","53","","","","36","","8","","24.1","","98.64","","","","","","Clear"
"-81.38","48.57","TIMMINS A","6078286","2023-08-26 20:00","2023","08","26","20:00","","9.2","","6.5","","83","","","","36","","6","","24.1","","98.67","","","","","","NA"
"-81.38","48.57","TIMMINS A","6078286","2023-08-26 21:00","2023","08","26","21:00","","7.5","","5.5","","87","","","","36","","5","","24.1","","98.69","","","","","","NA"
"-81.38","48.57","TIMMINS A","6078286","2023-08-26 22:00","2023","08","26","22:00","","6.5","","4.8","","89","","","","36","","4","","24.1","","98.72","","","","","","Clear"
"-81.38","48.57","TIMMINS A","6078286","2023-08-26 23:00","2023","08","26","23:00","","5.5","","4.2","","92","","","","33","","7","","24.1","","98.72","","","","","","NA"
"-81.38","48.57","TIMMINS A","6078286","2023-08-27 00:00","2023","08","27","00:00","","3.2","","2.4","","95","","","","32","","3","","24.1","","98.74","","","","","","NA"
"-81.38","48.57","TIMMINS A","6078286","2023-08-27 01:00","2023","08","27","01:00","","2.8","","2.3","","96","","","","","","0","","24.1","","98.72","","","","","","Clear"
"-81.38","48.57","TIMMINS A","6078286","2023-08-27 02:00","2023","08","27","02:00","","2.1","","1.5","","96","","","","29","","4","","24.1","","98.72","","","","","","NA"
"-81.38","48.57","TIMMINS A","6078286","2023-08-27 03:00","2023","08","27","03:00","","1.4","","0.8","","96","","","","36","","3","","24.1","","98.72","","","","","","NA"
"-81.38","48.57","TIMMINS A","6078286","2023-08-27 04:00","2023","08","27","04:00","","1.0","","0.5","","96","","","","36","","3","","24.1","","98.73","","","","","","Clear"
"-81.38","48.57","TIMMINS A","6078286","2023-08-27 05:00","2023","08","27","05:00","","0.2","","-0.3","","96","","","","","","0","","24.1","","98.74","","","","","","NA"
"-81.38","48.57","TIMMINS A","6078286","2023-08-27 06:00","2023","08","27","06:00","","0.3","","-0.2","","96","","","","","","0","","24.1","","98.77","","","","","","NA"
"-81.38","48.57","TIMMINS A","6078286","2023-08-27 07:00","2023","08","27","07:00","","4.3","","3.5","","95","","","","19","","5","","24.1","","98.78","","","","","","Clear"
"-81.38","48.57","TIMMINS A","6078286","2023-08-27 08:00","2023","08","27","08:00","","9.7","","6.4","","80","","","","9","","3","","24.1","","98.79","","","","","","NA"
"-81.38","48.57","TIMMINS A","6078286","2023-08-27 09:00","2023","08","27","09:00","","14.1","","7.9","","66","","","","18","","4","","24.1","","98.76","","","","","","NA"
"-81.38","48.57","TIMMINS A","6078286","2023-08-27 10:00","2023","08","27","10:00","","16.1","","6.9","","54","","","","19","","5","","24.1","","98.70","","","","","","Mainly Clear"
"-81.38","48.57","TIMMINS A","6078286","2023-08-27 11:00","2023","08","27","11:00","","17.9","","7.2","","49","","","","8","","9","","24.1","","98.66","","","","","","NA"
"-81.38","48.57","TIMMINS A","6078286","2023-08-27 12:00","2023","08","27","12:00","","18.0","","6.7","","47","","","","18","","4","","24.1","","98.58","","","","","","NA"
"-81.38","48.57","TIMMINS A","6078286","2023-08-27 13:00","2023","08","27","13:00","","18.9","","6.5","","44","","","","7","","9","","24.1","","98.51","","","","","","Mainly Clear"
"-81.38","48.57","TIMMINS A","6078286","2023-08-27 14:00","2023","08","27","14:00","","19.4","","6.1","","41","","","","30","","4","","24.1","","98.43","","","","","","NA"
"-81.38","48.57","TIMMINS A","6078286","2023-08-27 15:00","2023","08","27","15:00","","20.2","","6.4","","40","","","","18","","15","","24.1","","98.34","","","","","","NA"
"-81.38","48.57","TIMMINS A","6078286","2023-08-27 16:00","2023","08","27","16:00","","20.4","","6.3","","39","","","","17","","10","","24.1","","98.27","","","","","","Clear"
"-81.38","48.57","TIMMINS A","6078286","2023-08-27 17:00","2023","08","27","17:00","","20.6","","6.3","","39","","","","16","","8","","24.1","","98.25","","","","","","NA"
"-81.38","48.57","TIMMINS A","6078286","2023-08-27 18:00","2023","08","27","18:00","","19.9","","7.0","","43","","","","17","","5","","24.1","","98.20","","","","","","NA"
"-81.38","48.57","TIMMINS A","6078286","2023-08-27 19:00","2023","08","27","19:00","","14.0","","10.5","","79","","","","22","","5","","24.1","","98.18","","","","","","Clear"
"-81.38","48.57","TIMMINS A","6078286","2023-08-27 20:00","2023","08","27","20:00","","10.0","","7.9","","87","","","","","","0","","24.1","","98.18","","","","","","NA"
"-81.38","48.57","TIMMINS A","6078286","2023-08-27 21:00","2023","08","27","21:00","","8.0","","6.5","","90","","","","25","","4","","24.1","","98.16","","","","","","NA"
"-81.38","48.57","TIMMINS A","6078286","2023-08-27 22:00","2023","08","27","22:00","","8.3","","6.5","","89","","","","20","","5","","24.1","","98.14","","","","","","Clear"
"-81.38","48.57","TIMMINS A","6078286","2023-08-27 23:00","2023","08","27","23:00","","8.3","","7.0","","91","","","","19","","7","","24.1","","98.13","","","","","","NA"
"-81.38","48.57","TIMMINS A","6078286","2023-08-28 00:00","2023","08","28","00:00","","7.0","","6.3","","96","","","","20","","8","","24.1","","98.12","","","","","","NA"
"-81.38","48.57","TIMMINS A","6078286","2023-08-28 01:00","2023","08","28","01:00","","7.3","","6.6","","95","","","","19","","7","","24.1","","98.09","","","","","","Clear"
"-81.38","48.57","TIMMINS A","6078286","2023-08-28 02:00","2023","08","28","02:00","","5.8","","5.2","","96","","","","16","","4","","24.1","","98.09","","","","","","NA"
"-81.38","48.57","TIMMINS A","6078286","2023-08-28 03:00","2023","08","28","03:00","","4.5","","4.1","","97","","","","18","","7","","24.1","","98.08","","","","","","NA"
"-81.38","48.57","TIMMINS A","6078286","2023-08-28 04:00","2023","08","28","04:00","","5.0","","4.6","","98","","","","19","","8","","24.1","","98.08","","","","","","Clear"
"-81.38","48.57","TIMMINS A","6078286","2023-08-28 05:00","2023","08","28","05:00","","4.6","","4.4","","98","","","","18","","5","","24.1","","98.08","","","","","","NA"
"-81.38","48.57","TIMMINS A","6078286","2023-08-28 06:00","2023","08","28","06:00","","4.4","","4.2","","98","","","","20","","7","","24.1","","98.08","","","","","","NA"
"-81.38","48.57","TIMMINS A","6078286","2023-08-28 07:00","2023","08","28","07:00","","6.8","","6.6","","98","","","","19","","9","","24.1","","98.07","","","","","","Mainly Clear"
"-81.38","48.57","TIMMINS A","6078286","2023-08-28 08:00","2023","08","28","08:00","","11.2","","7.6","","78","","","","22","","7","","24.1","","98.07","","","","","","NA"
"-81.38","48.57","TIMMINS A","6078286","2023-08-28 09:00","2023","08","28","09:00","","14.5","","6.1","","57","","","","25","","9","","24.1","","98.02","","","","","","NA"
"-81.38","48.57","TIMMINS A","6078286","2023-08-28 10:00","2023","08","28","10:00","","16.9","","4.8","","44","","","","19","","14","","24.1","","97.98","","","","","","Mainly Clear"
"-81.38","48.57","TIMMINS A","6078286","2023-08-28 11:00","2023","08","28","11:00","","19.0","","4.2","","37","","","","23","","15","","24.1","","97.94","","","","","","NA"
"-81.38","48.57","TIMMINS A","6078286","2023-08-28 12:00","2023","08","28","12:00","","20.7","","3.6","","32","","","","22","","16","","24.1","","97.91","","","","","","NA"
"-81.38","48.57","TIMMINS A","6078286","2023-08-28 13:00","2023","08","28","13:00","","22.2","","5.1","","33","","","","21","","9","","24.1","","97.85","","","","","","Mainly Clear"
"-81.38","48.57","TIMMINS A","6078286","2023-08-28 14:00","2023","08","28","14:00","","22.0","","3.7","","30","","","","22","","15","","24.1","","97.79","","","","","","NA"
"-81.38","48.57","TIMMINS A","6078286","2023-08-28 15:00","2023","08","28","15:00","","22.2","","4.0","","30","","","","27","","13","","24.1","","97.76","","","","","","NA"
"-81.38","48.57","TIMMINS A","6078286","2023-08-28 16:00","2023","08","28","16:00","","21.9","","6.6","","37","","","","21","","11","","24.1","","97.74","","","","","","Mostly Cloudy"
"-81.38","48.57","TIMMINS A","6078286","2023-08-28 17:00","2023","08","28","17:00","","21.8","","8.6","","42","","","","22","","9","","24.1","","97.71","","","","","","NA"
"-81.38","48.57","TIMMINS A","6078286","2023-08-28 18:00","2023","08","28","18:00","","21.0","","9.6","","48","","","","24","","10","","24.1","","97.70","","","","","","NA"
"-81.38","48.57","TIMMINS A","6078286","2023-08-28 19:00","2023","08","28","19:00","","18.6","","10.6","","59","","","","22","","7","","24.1","","97.68","","","","","","Mostly Cloudy"
"-81.38","48.57","TIMMINS A","6078286","2023-08-28 20:00","2023","08","28","20:00","","18.2","","10.6","","61","","","","23","","7","","24.1","","97.69","","","","","","NA"
"-81.38","48.57","TIMMINS A","6078286","2023-08-28 21:00","2023","08","28","21:00","","16.1","","13.7","","86","","","","30","","6","","24.1","","97.77","","","","","","NA"
"-81.38","48.57","TIMMINS A","6078286","2023-08-28 22:00","2023","08","28","22:00","","15.6","","13.8","","89","","","","30","","3","","24.1","","97.75","","","","","","Mostly Cloudy"
"-81.38","48.57","TIMMINS A","6078286","2023-08-28 23:00","2023","08","28","23:00","","14.8","","13.7","","93","","","","","","0","","24.1","","97.70","","","","","","Rain"
"-81.38","48.57","TIMMINS A","6078286","2023-08-29 00:00","2023","08","29","00:00","","14.7","","13.9","","95","","","","20","","8","","24.1","","97.69","","","","","","Rain"
"-81.38","48.57","TIMMINS A","6078286","2023-08-29 01:00","2023","08","29","01:00","","14.7","","13.9","","95","","","","23","","6","","24.1","","97.67","","","","","","Rain"
"-81.38","48.57","TIMMINS A","6078286","2023-08-29 02:00","2023","08","29","02:00","","14.5","","13.2","","91","","","","22","","4","","24.1","","97.62","","","","","","Rain"
"-81.38","48.57","TIMMINS A","6078286","2023-08-29 03:00","2023","08","29","03:00","","14.0","","13.5","","97","","","","20","","8","","24.1","","97.60","","","","","","Rain"
"-81.38","48.57","TIMMINS A","6078286","2023-08-29 04:00","2023","08","29","04:00","","14.3","","13.4","","94","","","","24","","4","","24.1","","97.58","","","","","","Cloudy"
"-81.38","48.57","TIMMINS A","6078286","2023-08-29 05:00","2023","08","29","05:00","","14.0","","13.6","","97","","","","18","","5","","24.1","","97.59","","","","","","NA"
"-81.38","48.57","TIMMINS A","6078286","2023-08-29 06:00","2023","08","29","06:00","","14.2","","13.6","","96","","","","","","0","","24.1","","97.60","","","","","","NA"
"-81.38","48.57","TIMMINS A","6078286","2023-08-29 07:00","2023","08","29","07:00","","14.7","","13.8","","94","","","","2","","4","","24.1","","97.59","","","","","","Cloudy"
"-81.38","48.57","TIMMINS A","6078286","2023-08-29 08:00","2023","08","29","08:00","","11.6","","11.2","","97","","","","36","","11","","4.0","","97.65","","","","","","Fog"
"-81.38","48.57","TIMMINS A","6078286","2023-08-29 09:00","2023","08","29","09:00","","10.4","","10.0","","97","","","","3","","20","","4.0","","97.68","","","","","","Drizzle,Fog"
"-81.38","48.57","TIMMINS A","6078286","2023-08-29 10:00","2023","08","29","10:00","","9.8","","9.4","","97","","","","1","","14","","3.2","","97.72","","","","","","Rain,Fog"
"-81.38","48.57","TIMMINS A","6078286","2023-08-29 11:00","2023","08","29","11:00","","9.6","","9.2","","98","","","","2","","20","","2.4","","97.73","","","","","","Moderate Rain,Fog"
"-81.38","48.57","TIMMINS A","6078286","2023-08-29 12:00","2023","08","29","12:00","","9.7","","9.3","","98","","","","36","","13","","3.2","","97.76","","","","","","Rain,Fog"
"-81.38","48.57","TIMMINS A","6078286","2023-08-29 13:00","2023","08","29","13:00","","9.4","","8.8","","96","","","","2","","16","","4.0","","97.78","","","","","","Rain,Fog"
"-81.38","48.57","TIMMINS A","6078286","2023-08-29 14:00","2023","08","29","14:00","","9.2","","8.6","","96","","","","36","","23","","4.0","","97.79","","","","","","Moderate Rain,Fog"
"-81.38","48.57","TIMMINS A","6078286","2023-08-29 15:00","2023","08","29","15:00","","8.8","","8.1","","95","","","","1","","23","","4.0","","97.80","","","","","","Moderate Rain,Fog"
"-81.38","48.57","TIMMINS A","6078286","2023-08-29 16:00","2023","08","29","16:00","","8.2","","7.3","","94","","","","1","","26","","4.8","","97.83","","","","","","Rain,Fog"
"-81.38","48.57","TIMMINS A","6078286","2023-08-29 17:00","2023","08","29","17:00","","8.2","","7.5","","95","","","","1","","16","","9.7","","97.89","","","","","","Rain,Fog"
"-81.38","48.57","TIMMINS A","6078286","2023-08-29 18:00","2023","08","29","18:00","","8.0","","7.2","","95","","","","36","","17","","9.7","","97.95","","","","","","Rain,Fog"
"-81.38","48.57","TIMMINS A","6078286","2023-08-29 19:00","2023","08","29","19:00","","7.5","","6.7","","95","","","","2","","18","","9.7","","97.97","","","","","","Rain,Fog"
"-81.38","48.57","TIMMINS A","6078286","2023-08-29 20:00","2023","08","29","20:00","","7.3","","6.7","","96","","","","1","","15","","16.1","","98.00","","","","","","Rain"
"-81.38","48.57","TIMMINS A","6078286","2023-08-29 21:00","2023","08","29","21:00","","6.9","","6.4","","96","","","","1","","14","","24.1","","98.04","","","","","","Rain"
"-81.38","48.57","TIMMINS A","6078286","2023-08-29 22:00","2023","08","29","22:00","","6.6","","5.9","","95","","","","36","","10","","24.1","","98.06","","","","","","Rain"
"-81.38","48.57","TIMMINS A","6078286","2023-08-29 23:00","2023","08","29","23:00","","6.2","","5.5","","95","","","","35","","12","","24.1","","98.08","","","","","","Rain"
"-81.38","48.57","TIMMINS A","6078286","2023-08-30 00:00","2023","08","30","00:00","","5.0","","4.2","","94","","","","35","","13","","24.1","","98.09","","","","","","NA"
"-81.38","48.57","TIMMINS A","6078286","2023-08-30 01:00","2023","08","30","01:00","","4.1","","3.3","","95","","","","35","","11","","24.1","","98.11","","","","","","Mainly Clear"
"-81.38","48.57","TIMMINS A","6078286","2023-08-30 02:00","2023","08","30","02:00","","3.5","","2.9","","96","","","","36","","11","","24.1","","98.10","","","","","","NA"
"-81.38","48.57","TIMMINS A","6078286","2023-08-30 03:00","2023","08","30","03:00","","3.0","","2.6","","97","","","","35","","11","","24.1","","98.09","","","","","","NA"
"-81.38","48.57","TIMMINS A","6078286","2023-08-30 04:00","2023","08","30","04:00","","1.5","","1.2","","98","","","","32","","9","","24.1","","98.10","","","","","","Mainly Clear"
"-81.38","48.57","TIMMINS A","6078286","2023-08-30 05:00","2023","08","30","05:00","","1.1","","0.8","","98","","","","32","","13","","4.8","","98.12","","","","","","Fog"
"-81.38","48.57","TIMMINS A","6078286","2023-08-30 06:00","2023","08","30","06:00","","0.9","","0.7","","98","","","","32","","12","","3.6","","98.17","","","","","","Fog"
"-81.38","48.57","TIMMINS A","6078286","2023-08-30 07:00","2023","08","30","07:00","","1.9","","1.7","","98","","","","32","","12","","4.0","","98.21","","","","","","Fog"
"-81.38","48.57","TIMMINS A","6078286","2023-08-30 08:00","2023","08","30","08:00","","4.5","","3.9","","96","","","","33","","11","","24.1","","98.24","","","","","","NA"
"-81.38","48.57","TIMMINS A","6078286","2023-08-30 09:00","2023","08","30","09:00","","7.7","","4.8","","82","","","","34","","16","","24.1","","98.26","","","","","","NA"
"-81.38","48.57","TIMMINS A","6078286","2023-08-30 10:00","2023","08","30","10:00","","9.7","","4.3","","69","","","","33","","8","","24.1","","98.26","","","","","","Mainly Clear"
"-81.38","48.57","TIMMINS A","6078286","2023-08-30 11:00","2023","08","30","11:00","","11.2","","3.1","","57","","","","33","","10","","24.1","","98.25","","","","","","NA"
"-81.38","48.57","TIMMINS A","6078286","2023-08-30 12:00","2023","08","30","12:00","","12.6","","1.3","","46","","","","33","","11","","24.1","","98.17","","","","","","NA"
"-81.38","48.57","TIMMINS A","6078286","2023-08-30 13:00","2023","08","30","13:00","","14.2","","2.4","","45","","","","28","","14","","24.1","","98.13","","","","","","Mainly Clear"
"-81.38","48.57","TIMMINS A","6078286","2023-08-30 14:00","2023","08","30","14:00","","15.1","","3.1","","44","","","","30","","12","","24.1","","98.07","","","","","","NA"
"-81.38","48.57","TIMMINS A","6078286","2023-08-30 15:00","2023","08","30","15:00","","16.3","","4.0","","44","","","","31","","13","","24.1","","98.03","","","","","","NA"
"-81.38","48.57","TIMMINS A","6078286","2023-08-30 16:00","2023","08","30","16:00","","15.6","","4.2","","46","","","","29","","8","","24.1","","98.01","","","","","","Mostly Cloudy"
"-81.38","48.57","TIMMINS A","6078286","2023-08-30 17:00","2023","08","30","17:00","","15.9","","5.1","","48","","","","32","","7","","24.1","","97.98","","","","","","NA"
"-81.38","48.57","TIMMINS A","6078286","2023-08-30 18:00","2023","08","30","18:00","","15.0","","7.3","","60","","","","36","","3","","24.1","","97.94","","","","","","NA"
"-81.38","48.57","TIMMINS A","6078286","2023-08-30 19:00","2023","08","30","19:00","","12.1","","8.9","","80","","","","15","","4","","24.1","","97.97","","","","","","Mostly Cloudy"
"-81.38","48.57","TIMMINS A","6078286","2023-08-30 20:00","2023","08","30","20:00","","9.6","","8.2","","91","","","","19","","6","","24.1","","97.98","","","","","","NA"
"-81.38","48.57","TIMMINS A","6078286","2023-08-30 21:00","2023","08","30","21:00","","9.8","","6.9","","82","","","","20","","8","","24.1","","97.98","","","","","","NA"
"-81.38","48.57","TIMMINS A","6078286","2023-08-30 22:00","2023","08","30","22:00","","9.3","","6.9","","85","","","","19","","12","","24.1","","97.97","","","","","","Mainly Clear"
"-81.38","48.57","TIMMINS A","6078286","2023-08-30 23:00","2023","08","30","23:00","","8.5","","6.5","","88","","","","20","","9","","24.1","","97.97","","","","","","NA"
"-81.38","48.57","TIMMINS A","6078286","2023-08-31 00:00","2023","08","31","00:00","","10.1","","8.1","","87","","","","23","","9","","24.1","","98.01","","","","","","NA"
"-81.38","48.57","TIMMINS A","6078286","2023-08-31 01:00","2023","08","31","01:00","","11.1","","8.8","","85","","","","27","","12","","24.1","","98.00","","","","","","Mainly Clear"
"-81.38","48.57","TIMMINS A","6078286","2023-08-31 02:00","2023","08","31","02:00","","10.3","","8.9","","91","","","","28","","12","","24.1","","98.04","","","","","","NA"
"-81.38","48.57","TIMMINS A","6078286","2023-08-31 03:00","2023","08","31","03:00","","9.0","","8.3","","95","","","","30","","8","","24.1","","98.09","","","","","","NA"
"-81.38","48.57","TIMMINS A","6078286","2023-08-31 04:00","2023","08","31","04:00","","8.5","","8.1","","98","","","","30","","9","","24.1","","98.15","","","","","","Mainly Clear"
"-81.38","48.57","TIMMINS A","6078286","2023-08-31 05:00","2023","08","31","05:00","","7.4","","7.1","","98","","","","30","","9","","24.1","","98.21","","","","","","NA"
"-81.38","48.57","TIMMINS A","6078286","2023-08-31 06:00","2023","08","31","06:00","","6.7","","6.4","","98","","","","29","","7","","24.1","","98.25","","","","","","NA"
"-81.38","48.57","TIMMINS A","6078286","2023-08-31 07:00","2023","08","31","07:00","","8.7","","8.4","","98","","","","36","","3","","24.1","","98.32","","","","","","Mainly Clear"
"-81.38","48.57","TIMMINS A","6078286","2023-08-31 08:00","2023","08","31","08:00","","12.0","","10.4","","89","","","","26","","3","","24.1","","98.35","","","","","","NA"
"-81.38","48.57","TIMMINS A","6078286","2023-08-31 09:00","2023","08","31","09:00","","15.1","","10.8","","75","","","","24","","7","","24.1","","98.41","","","","","","NA"
"-81.38","48.57","TIMMINS A","6078286","2023-08-31 10:00","2023","08","31","10:00","","17.5","","9.7","","60","","","","27","","13","","24.1","","98.44","","","","","","Mainly Clear"
"-81.38","48.57","TIMMINS A","6078286","2023-08-31 11:00","2023","08","31","11:00","","19.1","","9.6","","54","","","","29","","11","","24.1","","98.45","","","","","","NA"
"-81.38","48.57","TIMMINS A","6078286","2023-08-31 12:00","2023","08","31","12:00","","20.3","","9.2","","48","","","","26","","12","","24.1","","98.47","","","","","","NA"
"-81.38","48.57","TIMMINS A","6078286","2023-08-31 13:00","2023","08","31","13:00","","21.5","","9.1","","45","","","","32","","11","","24.1","","98.44","","","","","","Clear"
"-81.38","48.57","TIMMINS A","6078286","2023-08-31 14:00","2023","08","31","14:00","","22.5","","8.7","","41","","","","31","","16","","24.1","","98.41","","","","","","NA"
"-81.38","48.57","TIMMINS A","6078286","2023-08-31 15:00","2023","08","31","15:00","","22.9","","9.1","","41","","","","32","","8","","24.1","","98.37","","","","","","NA"
"-81.38","48.57","TIMMINS A","6078286","2023-08-31 16:00","2023","08","31","16:00","","22.4","","8.7","","41","","","","27","","11","","24.1","","98.36","","","","","","Clear"
"-81.38","48.57","TIMMINS A","6078286","2023-08-31 17:00","2023","08","31","17:00","","22.2","","8.4","","41","","","","30","","6","","24.1","","98.39","","","","","","NA"
"-81.38","48.57","TIMMINS A","6078286","2023-08-31 18:00","2023","08","31","18:00","","20.6","","10.8","","53","","","","28","","5","","24.1","","98.43","","","","","","NA"
"-81.38","48.57","TIMMINS A","6078286","2023-08-31 19:00","2023","08","31","19:00","","14.4","","11.4","","82","","","","25","","5","","24.1","","98.44","","","","","","Mainly Clear"
"-81.38","48.57","TIMMINS A","6078286","2023-08-31 20:00","2023","08","31","20:00","","12.0","","10.4","","90","","","","","","0","","24.1","","98.46","","","","","","NA"
"-81.38","48.57","TIMMINS A","6078286","2023-08-31 21:00","2023","08","31","21:00","","11.4","","9.9","","90","","","","","","0","","24.1","","98.51","","","","","","NA"
"-81.38","48.57","TIMMINS A","6078286","2023-08-31 22:00","2023","08","31","22:00","","10.0","","9.7","","98","","","","18","","5","","24.1","","98.49","","","","","","Clear"
"-81.38","48.57","TIMMINS A","6078286","2023-08-31 23:00","2023","08","31","23:00","","9.2","","8.1","","93","","","","19","","5","","24.1","","98.52","","","","","","NA"
